{
"type": "FeatureCollection",
"name": "shelters",
"crs": { "type": "name", "properties": { "name": "urn:ogc:def:crs:OGC:1.3:CRS84" } },
"features": [
{ "type": "Feature", "properties": { "name": null, "amenity": "community_centre", "building": null, "leisure": null }, "geometry": { "type": "Point", "coordinates": [ 77.5701724, 13.0030557 ] } },
{ "type": "Feature", "properties": { "name": "S.C/S.T Welfare assocition", "amenity": "community_centre", "building": null, "leisure": null }, "geometry": { "type": "Point", "coordinates": [ 77.5707314, 12.984978 ] } },
{ "type": "Feature", "properties": { "name": "Dr.b R Ambedkar Samudaya Bavan(bbmp)", "amenity": "community_centre", "building": null, "leisure": null }, "geometry": { "type": "Point", "coordinates": [ 77.5707724, 12.9862367 ] } },
{ "type": "Feature", "properties": { "name": "Youth welfare association", "amenity": "community_centre", "building": null, "leisure": null }, "geometry": { "type": "Point", "coordinates": [ 77.570748, 12.9861118 ] } },
{ "type": "Feature", "properties": { "name": "V.R.naidu Abimanigala sanga", "amenity": "community_centre", "building": null, "leisure": null }, "geometry": { "type": "Point", "coordinates": [ 77.5681858, 12.9916519 ] } },
{ "type": "Feature", "properties": { "name": "Samatha Sainika Dala", "amenity": "community_centre", "building": null, "leisure": null }, "geometry": { "type": "Point", "coordinates": [ 77.6133364, 12.9496427 ] } },
{ "type": "Feature", "properties": { "name": "JDS Office", "amenity": "community_centre", "building": null, "leisure": null }, "geometry": { "type": "Point", "coordinates": [ 77.6147223, 12.9498927 ] } },
{ "type": "Feature", "properties": { "name": "Bus staf&Reds", "amenity": "community_centre", "building": null, "leisure": null }, "geometry": { "type": "Point", "coordinates": [ 77.6139324, 12.9500392 ] } },
{ "type": "Feature", "properties": { "name": "Government training centre", "amenity": "community_centre", "building": null, "leisure": null }, "geometry": { "type": "Point", "coordinates": [ 77.6151518, 12.9503659 ] } },
{ "type": "Feature", "properties": { "name": "Central Govt Community Hall", "amenity": "community_centre", "building": null, "leisure": null }, "geometry": { "type": "Point", "coordinates": [ 77.6401315, 12.9602685 ] } },
{ "type": "Feature", "properties": { "name": "Nandagokula Sabhangana", "amenity": "community_centre", "building": null, "leisure": null }, "geometry": { "type": "Point", "coordinates": [ 77.5410571, 12.9385924 ] } },
{ "type": "Feature", "properties": { "name": "Sundar Mahal", "amenity": "community_centre", "building": null, "leisure": null }, "geometry": { "type": "Point", "coordinates": [ 77.5392281, 12.9388834 ] } },
{ "type": "Feature", "properties": { "name": "BDA East office", "amenity": "townhall", "building": null, "leisure": null }, "geometry": { "type": "Point", "coordinates": [ 77.6373485, 12.913578 ] } },
{ "type": "Feature", "properties": { "name": "Prince Party Hall", "amenity": "community_centre", "building": "yes", "leisure": null }, "geometry": { "type": "Point", "coordinates": [ 77.5619192, 12.9279572 ] } },
{ "type": "Feature", "properties": { "name": "Guru Narasimha Kalyana Mantap", "amenity": "community_centre", "building": null, "leisure": null }, "geometry": { "type": "Point", "coordinates": [ 77.5680233, 12.9496638 ] } },
{ "type": "Feature", "properties": { "name": "Akkamahadevi Kalyana Mantapa", "amenity": "community_centre", "building": null, "leisure": null }, "geometry": { "type": "Point", "coordinates": [ 77.5484169, 12.998911 ] } },
{ "type": "Feature", "properties": { "name": "Shivaprabha Kalyana Mantapa", "amenity": "community_centre", "building": null, "leisure": null }, "geometry": { "type": "Point", "coordinates": [ 77.5486996, 12.9831177 ] } },
{ "type": "Feature", "properties": { "name": "Ashirwad", "amenity": "community_centre", "building": null, "leisure": null }, "geometry": { "type": "Point", "coordinates": [ 77.6004411, 12.9719394 ] } },
{ "type": "Feature", "properties": { "name": "Partik Convention Hall", "amenity": "community_centre", "building": null, "leisure": null }, "geometry": { "type": "Point", "coordinates": [ 77.5893788, 12.922965 ] } },
{ "type": "Feature", "properties": { "name": "Terapanth Bhavan", "amenity": "community_centre", "building": null, "leisure": null }, "geometry": { "type": "Point", "coordinates": [ 77.5796673, 12.9776756 ] } },
{ "type": "Feature", "properties": { "name": "Hande Hall", "amenity": "community_centre", "building": null, "leisure": null }, "geometry": { "type": "Point", "coordinates": [ 77.5850521, 12.9248857 ] } },
{ "type": "Feature", "properties": { "name": "Avadhani Convention Center", "amenity": "townhall", "building": null, "leisure": null }, "geometry": { "type": "Point", "coordinates": [ 77.5478867, 12.9403899 ] } },
{ "type": "Feature", "properties": { "name": "Maradi Subbiah Trust Kalyana Mantapa", "amenity": "townhall", "building": null, "leisure": null }, "geometry": { "type": "Point", "coordinates": [ 77.5625997, 12.9451935 ] } },
{ "type": "Feature", "properties": { "name": "Chandra Shekara Bharati Kalyana Mantapa", "amenity": "community_centre", "building": null, "leisure": null }, "geometry": { "type": "Point", "coordinates": [ 77.572086, 12.954482 ] } },
{ "type": "Feature", "properties": { "name": "Sharada Prasada Kalyana Mantapa", "amenity": "community_centre", "building": null, "leisure": null }, "geometry": { "type": "Point", "coordinates": [ 77.5720966, 12.9546728 ] } },
{ "type": "Feature", "properties": { "name": "Raya Raya Kollam Kalyana Mantapa", "amenity": "community_centre", "building": null, "leisure": null }, "geometry": { "type": "Point", "coordinates": [ 77.5725794, 12.9552792 ] } },
{ "type": "Feature", "properties": { "name": "Krishna Vadiraja Kalyana Mantapa", "amenity": "community_centre", "building": null, "leisure": null }, "geometry": { "type": "Point", "coordinates": [ 77.5725607, 12.9549159 ] } },
{ "type": "Feature", "properties": { "name": "Nandana Party Hall", "amenity": "community_centre", "building": null, "leisure": null }, "geometry": { "type": "Point", "coordinates": [ 77.5496062, 12.9875529 ] } },
{ "type": "Feature", "properties": { "name": "Purandara Dasa Trust Hall", "amenity": "community_centre", "building": null, "leisure": null }, "geometry": { "type": "Point", "coordinates": [ 77.5542251, 12.8960028 ] } },
{ "type": "Feature", "properties": { "name": "KTSVS Rajatha Mahotsava Samudaaya Bhavana", "amenity": "community_centre", "building": null, "leisure": null }, "geometry": { "type": "Point", "coordinates": [ 77.5558016, 12.9843805 ] } },
{ "type": "Feature", "properties": { "name": "Sri Hari Kalyana Mantapa", "amenity": "community_centre", "building": null, "leisure": null }, "geometry": { "type": "Point", "coordinates": [ 77.5621194, 12.9283205 ] } },
{ "type": "Feature", "properties": { "name": "HB Samaja Convention Hall", "amenity": "community_centre", "building": null, "leisure": null }, "geometry": { "type": "Point", "coordinates": [ 77.5717632, 12.9457315 ] } },
{ "type": "Feature", "properties": { "name": "Parimala Sabhangana", "amenity": "community_centre", "building": null, "leisure": null }, "geometry": { "type": "Point", "coordinates": [ 77.6391984, 12.9788524 ] } },
{ "type": "Feature", "properties": { "name": "Sri Chowdeshwari Bhavan", "amenity": "community_centre", "building": null, "leisure": null }, "geometry": { "type": "Point", "coordinates": [ 77.6023113, 12.9420376 ] } },
{ "type": "Feature", "properties": { "name": "Ayodhya Kalyana Mantapa", "amenity": "community_centre", "building": null, "leisure": null }, "geometry": { "type": "Point", "coordinates": [ 77.5841061, 12.9377783 ] } },
{ "type": "Feature", "properties": { "name": "Samaj Seva Sangha", "amenity": "community_centre", "building": null, "leisure": null }, "geometry": { "type": "Point", "coordinates": [ 77.5827169, 12.9390863 ] } },
{ "type": "Feature", "properties": { "name": "Akshaya", "amenity": "community_centre", "building": null, "leisure": null }, "geometry": { "type": "Point", "coordinates": [ 77.700154, 12.9518644 ] } },
{ "type": "Feature", "properties": { "name": "Function Hall", "amenity": "community_centre", "building": null, "leisure": null }, "geometry": { "type": "Point", "coordinates": [ 77.6349102, 12.9708578 ] } },
{ "type": "Feature", "properties": { "name": null, "amenity": "community_centre", "building": null, "leisure": null }, "geometry": { "type": "Point", "coordinates": [ 77.6413662, 12.9798672 ] } },
{ "type": "Feature", "properties": { "name": "Krishna Summit Banquet Hall", "amenity": "community_centre", "building": null, "leisure": null }, "geometry": { "type": "Point", "coordinates": [ 77.7009213, 12.9577993 ] } },
{ "type": "Feature", "properties": { "name": "Government Function Hall", "amenity": "community_centre", "building": null, "leisure": null }, "geometry": { "type": "Point", "coordinates": [ 77.5496787, 12.9620904 ] } },
{ "type": "Feature", "properties": { "name": "Vasavi Mahal", "amenity": "community_centre", "building": null, "leisure": null }, "geometry": { "type": "Point", "coordinates": [ 77.5143095, 12.9268736 ] } },
{ "type": "Feature", "properties": { "name": "Parvati Kalyana Mantapa", "amenity": "community_centre", "building": null, "leisure": null }, "geometry": { "type": "Point", "coordinates": [ 77.6514124, 13.0085079 ] } },
{ "type": "Feature", "properties": { "name": "Soudhamini Kalyana Mantapa", "amenity": "community_centre", "building": null, "leisure": null }, "geometry": { "type": "Point", "coordinates": [ 77.5661555, 12.8826852 ] } },
{ "type": "Feature", "properties": { "name": "Ambedkar Community Computer Center(AC3)", "amenity": "community_centre", "building": null, "leisure": null }, "geometry": { "type": "Point", "coordinates": [ 77.6021808, 12.9240616 ] } },
{ "type": "Feature", "properties": { "name": "Kannada Samskreeta Mahila Koota", "amenity": "community_centre", "building": null, "leisure": null }, "geometry": { "type": "Point", "coordinates": [ 77.6521261, 12.9704844 ] } },
{ "type": "Feature", "properties": { "name": "CIIQ", "amenity": "community_centre", "building": null, "leisure": null }, "geometry": { "type": "Point", "coordinates": [ 77.4765336, 12.9761181 ] } },
{ "type": "Feature", "properties": { "name": "Vysya Choultry", "amenity": "community_centre", "building": null, "leisure": null }, "geometry": { "type": "Point", "coordinates": [ 77.6098418, 12.9826539 ] } },
{ "type": "Feature", "properties": { "name": "Karunadu services", "amenity": "community_centre", "building": null, "leisure": null }, "geometry": { "type": "Point", "coordinates": [ 77.6575557, 12.9821034 ] } },
{ "type": "Feature", "properties": { "name": "Subharam Kalyana Mantapa", "amenity": "community_centre", "building": null, "leisure": null }, "geometry": { "type": "Point", "coordinates": [ 77.5485962, 12.9784178 ] } },
{ "type": "Feature", "properties": { "name": "Meenaakshi Convention Center", "amenity": "community_centre", "building": null, "leisure": null }, "geometry": { "type": "Point", "coordinates": [ 77.5943821, 12.875302 ] } },
{ "type": "Feature", "properties": { "name": "MituToyo", "amenity": "community_centre", "building": null, "leisure": null }, "geometry": { "type": "Point", "coordinates": [ 77.6229745, 12.9320232 ] } },
{ "type": "Feature", "properties": { "name": "All Peoples Church & World Outreach", "amenity": "community_centre", "building": null, "leisure": null }, "geometry": { "type": "Point", "coordinates": [ 77.6425433, 13.0208689 ] } },
{ "type": "Feature", "properties": { "name": "Aadhar Enrollment Center", "amenity": "community_centre", "building": null, "leisure": null }, "geometry": { "type": "Point", "coordinates": [ 77.6760274, 12.984642 ] } },
{ "type": "Feature", "properties": { "name": "Karnataka Kalyana Mantapa", "amenity": "community_centre", "building": null, "leisure": null }, "geometry": { "type": "Point", "coordinates": [ 77.584538, 13.0217462 ] } },
{ "type": "Feature", "properties": { "name": "Huq Building", "amenity": "community_centre", "building": null, "leisure": null }, "geometry": { "type": "Point", "coordinates": [ 77.5891542, 12.9616605 ] } },
{ "type": "Feature", "properties": { "name": "Lakshmi Convention Hall", "amenity": "community_centre", "building": null, "leisure": null }, "geometry": { "type": "Point", "coordinates": [ 77.5491202, 13.0024301 ] } },
{ "type": "Feature", "properties": { "name": "Hal", "amenity": "community_centre", "building": null, "leisure": null }, "geometry": { "type": "Point", "coordinates": [ 77.6881147, 12.9557759 ] } },
{ "type": "Feature", "properties": { "name": "Marriage Hall", "amenity": "community_centre", "building": null, "leisure": null }, "geometry": { "type": "Point", "coordinates": [ 77.6608219, 12.9548569 ] } },
{ "type": "Feature", "properties": { "name": "Sri Srinivasa Nilaya Dharmika Sabha Mandira", "amenity": "community_centre", "building": null, "leisure": null }, "geometry": { "type": "Point", "coordinates": [ 77.5480968, 12.9390746 ] } },
{ "type": "Feature", "properties": { "name": "Souharda Mini Hall", "amenity": "community_centre", "building": null, "leisure": null }, "geometry": { "type": "Point", "coordinates": [ 77.5486674, 12.9370957 ] } },
{ "type": "Feature", "properties": { "name": "Sapthapadi Kalyana Mantapa", "amenity": "community_centre", "building": null, "leisure": null }, "geometry": { "type": "Point", "coordinates": [ 77.5487177, 12.9370832 ] } },
{ "type": "Feature", "properties": { "name": "Kamalanaga Party Hall", "amenity": "community_centre", "building": null, "leisure": null }, "geometry": { "type": "Point", "coordinates": [ 77.5480928, 12.9390478 ] } },
{ "type": "Feature", "properties": { "name": "Dalit Youth Welfare Association", "amenity": "community_centre", "building": null, "leisure": null }, "geometry": { "type": "Point", "coordinates": [ 77.6610281, 12.962269 ] } },
{ "type": "Feature", "properties": { "name": "Sir M Vishveswaraya Welfare Association", "amenity": "community_centre", "building": null, "leisure": null }, "geometry": { "type": "Point", "coordinates": [ 77.6597533, 12.9644427 ] } },
{ "type": "Feature", "properties": { "name": "Human Rights Protection and Corruption Eradication Forum", "amenity": "community_centre", "building": null, "leisure": null }, "geometry": { "type": "Point", "coordinates": [ 77.6383481, 12.9733553 ] } },
{ "type": "Feature", "properties": { "name": "Royal Kempegowda Convention Center", "amenity": "community_centre", "building": null, "leisure": null }, "geometry": { "type": "Point", "coordinates": [ 77.5725944, 13.1180936 ] } },
{ "type": "Feature", "properties": { "name": "PMR Hall", "amenity": "community_centre", "building": null, "leisure": null }, "geometry": { "type": "Point", "coordinates": [ 77.6186326, 12.9335312 ] } },
{ "type": "Feature", "properties": { "name": "Sri Channakeshava Kalyana Mantapa", "amenity": "community_centre", "building": null, "leisure": null }, "geometry": { "type": "Point", "coordinates": [ 77.550787, 12.9914563 ] } },
{ "type": "Feature", "properties": { "name": "Sapthagiri Party Hall", "amenity": "community_centre", "building": null, "leisure": null }, "geometry": { "type": "Point", "coordinates": [ 77.624476, 13.041054 ] } },
{ "type": "Feature", "properties": { "name": "G R Veerabhadrappa's Veerashaiva Choultry, Sanskrit and Veda Pathashala", "amenity": "community_centre", "building": null, "leisure": null }, "geometry": { "type": "Point", "coordinates": [ 77.5771309, 12.9689075 ] } },
{ "type": "Feature", "properties": { "name": "Vasavi Mahal", "amenity": "community_centre", "building": null, "leisure": null }, "geometry": { "type": "Point", "coordinates": [ 77.5705059, 12.9988158 ] } },
{ "type": "Feature", "properties": { "name": "Chintalapalli Venkatamuni Setty's Free Boarding Hostel and Choultry", "amenity": "community_centre", "building": null, "leisure": null }, "geometry": { "type": "Point", "coordinates": [ 77.5793304, 12.9693722 ] } },
{ "type": "Feature", "properties": { "name": "ಟ್ರಿನಿಟಿ ಪಾರ್ಟಿ ಹಾಲ್", "amenity": "community_centre", "building": null, "leisure": null }, "geometry": { "type": "Point", "coordinates": [ 77.636475, 13.0207335 ] } },
{ "type": "Feature", "properties": { "name": "Clubhouse", "amenity": "community_centre", "building": null, "leisure": null }, "geometry": { "type": "Point", "coordinates": [ 77.6413357, 13.0607032 ] } },
{ "type": "Feature", "properties": { "name": "Drishya Kalika Kendra", "amenity": "community_centre", "building": null, "leisure": null }, "geometry": { "type": "Point", "coordinates": [ 77.6418177, 12.9946362 ] } },
{ "type": "Feature", "properties": { "name": "Adam's Golden Heritage", "amenity": "community_centre", "building": null, "leisure": null }, "geometry": { "type": "Point", "coordinates": [ 77.6075801, 12.9978333 ] } },
{ "type": "Feature", "properties": { "name": "Freemasons Hall", "amenity": "community_centre", "building": null, "leisure": null }, "geometry": { "type": "Point", "coordinates": [ 77.6121868, 12.9731876 ] } },
{ "type": "Feature", "properties": { "name": "Pearl Banquet", "amenity": "community_centre", "building": null, "leisure": null }, "geometry": { "type": "Point", "coordinates": [ 77.5965106, 12.9832235 ] } },
{ "type": "Feature", "properties": { "name": "RRR Kalyana Mantapa", "amenity": "community_centre", "building": null, "leisure": null }, "geometry": { "type": "Point", "coordinates": [ 77.5682066, 12.982855 ] } },
{ "type": "Feature", "properties": { "name": "Mother Tekla Auditorium", "amenity": "community_centre", "building": null, "leisure": null }, "geometry": { "type": "Point", "coordinates": [ 77.6158132, 12.9697498 ] } },
{ "type": "Feature", "properties": { "name": "Shree Shwetambar Sthanakvasi Jain", "amenity": "community_centre", "building": null, "leisure": null }, "geometry": { "type": "Point", "coordinates": [ 77.6122136, 12.9648895 ] } },
{ "type": "Feature", "properties": { "name": "All India Veerashiva Mahasabha", "amenity": "community_centre", "building": null, "leisure": null }, "geometry": { "type": "Point", "coordinates": [ 77.583774, 13.0069739 ] } },
{ "type": "Feature", "properties": { "name": "Devi Party Hall", "amenity": "community_centre", "building": null, "leisure": null }, "geometry": { "type": "Point", "coordinates": [ 77.4872589, 12.9301033 ] } },
{ "type": "Feature", "properties": { "name": "Samata Sainik Dal", "amenity": "community_centre", "building": null, "leisure": null }, "geometry": { "type": "Point", "coordinates": [ 77.6190586, 12.9524002 ] } },
{ "type": "Feature", "properties": { "name": "Rajalakshmi Kalyana Mantapa", "amenity": "community_centre", "building": null, "leisure": null }, "geometry": { "type": "Point", "coordinates": [ 77.5800258, 12.9168805 ] } },
{ "type": "Feature", "properties": { "name": "BBMP Employees Co-Operative Society", "amenity": "community_centre", "building": null, "leisure": null }, "geometry": { "type": "Point", "coordinates": [ 77.5900894, 12.9675882 ] } },
{ "type": "Feature", "properties": { "name": "Samudaya Bhavan", "amenity": "community_centre", "building": null, "leisure": null }, "geometry": { "type": "Point", "coordinates": [ 77.5974792, 12.9244017 ] } },
{ "type": "Feature", "properties": { "name": "Sri Srinivasa Kalyana Mantapa", "amenity": "community_centre", "building": null, "leisure": null }, "geometry": { "type": "Point", "coordinates": [ 77.5656363, 12.957032 ] } },
{ "type": "Feature", "properties": { "name": "Sri Annapoorneshwari Kalyana Mantapa", "amenity": "community_centre", "building": null, "leisure": null }, "geometry": { "type": "Point", "coordinates": [ 77.5659892, 12.8829862 ] } },
{ "type": "Feature", "properties": { "name": "Dr. BR Ambedkar Samudaya Bhavan", "amenity": "community_centre", "building": null, "leisure": null }, "geometry": { "type": "Point", "coordinates": [ 77.6494882, 12.9085763 ] } },
{ "type": "Feature", "properties": { "name": "Siddhartha Convention Centre", "amenity": "community_centre", "building": null, "leisure": null }, "geometry": { "type": "Point", "coordinates": [ 77.6499377, 12.9054885 ] } },
{ "type": "Feature", "properties": { "name": "underline center", "amenity": "community_centre", "building": null, "leisure": null }, "geometry": { "type": "Point", "coordinates": [ 77.6367397, 12.9672549 ] } },
{ "type": "Feature", "properties": { "name": "IIM-B Playground", "amenity": null, "building": null, "leisure": "stadium" }, "geometry": { "type": "Point", "coordinates": [ 77.6042025, 12.8941884 ] } },
{ "type": "Feature", "properties": { "name": "CMA Mahal", "amenity": "community_centre", "building": null, "leisure": null }, "geometry": { "type": "Point", "coordinates": [ 77.6162988, 13.0012487 ] } },
{ "type": "Feature", "properties": { "name": "TreeHouse", "amenity": "community_centre", "building": null, "leisure": null }, "geometry": { "type": "Point", "coordinates": [ 77.641665, 12.9789103 ] } },
{ "type": "Feature", "properties": { "name": "Jamia Shadi Mahal", "amenity": "community_centre", "building": null, "leisure": null }, "geometry": { "type": "Point", "coordinates": [ 77.5941829, 13.1039745 ] } },
{ "type": "Feature", "properties": { "name": "Shri Subramanya Swamy Kalyana Mantapa", "amenity": "community_centre", "building": null, "leisure": null }, "geometry": { "type": "Point", "coordinates": [ 77.6284146, 12.9773097 ] } },
{ "type": "Feature", "properties": { "name": "Jayanagar Cultural And Civic Association", "amenity": "community_centre", "building": null, "leisure": null }, "geometry": { "type": "Point", "coordinates": [ 77.5832362, 12.9265055 ] } },
{ "type": "Feature", "properties": { "name": "Bangalore City Dr Ambedkar Youth Welfare Association", "amenity": "community_centre", "building": null, "leisure": null }, "geometry": { "type": "Point", "coordinates": [ 77.5838084, 12.9571022 ] } },
{ "type": "Feature", "properties": { "name": "Hajee Saleh Mohammed Ahmed Sait Cutchi Memon Jamath Khana", "amenity": "community_centre", "building": null, "leisure": null }, "geometry": { "type": "Point", "coordinates": [ 77.6108927, 12.9827759 ] } },
{ "type": "Feature", "properties": { "name": "BMS Hostel Auditorium", "amenity": "community_centre", "building": null, "leisure": null }, "geometry": { "type": "Point", "coordinates": [ 77.5656135, 12.9401894 ] } },
{ "type": "Feature", "properties": { "name": "Dhaatu Puppet Gallery", "amenity": "community_centre", "building": null, "leisure": null }, "geometry": { "type": "Point", "coordinates": [ 77.5301347, 12.8637062 ] } },
{ "type": "Feature", "properties": { "name": "VasantaVana", "amenity": "community_centre", "building": null, "leisure": null }, "geometry": { "type": "Point", "coordinates": [ 77.53029, 12.8636877 ] } },
{ "type": "Feature", "properties": { "name": "Sri Mahaganapathi Community Center", "amenity": "community_centre", "building": null, "leisure": null }, "geometry": { "type": "Point", "coordinates": [ 77.7500645, 12.9725978 ] } },
{ "type": "Feature", "properties": { "name": "Ideal Community Hall", "amenity": "community_centre", "building": null, "leisure": null }, "geometry": { "type": "Point", "coordinates": [ 77.5150483, 12.9274267 ] } },
{ "type": "Feature", "properties": { "name": "Golden Jubilee Convention Centre", "amenity": "community_centre", "building": null, "leisure": null }, "geometry": { "type": "Point", "coordinates": [ 77.5150909, 12.9276696 ] } },
{ "type": "Feature", "properties": { "name": "Above Zenith Makerspace", "amenity": "community_centre", "building": null, "leisure": null }, "geometry": { "type": "Point", "coordinates": [ 77.6221257, 12.974173 ] } },
{ "type": "Feature", "properties": { "name": "Poornima Convention Centre", "amenity": "community_centre", "building": null, "leisure": null }, "geometry": { "type": "Point", "coordinates": [ 77.5893095, 12.9271515 ] } },
{ "type": "Feature", "properties": { "name": "Veerashaiva Lingayata Sanghatana Vedike", "amenity": "community_centre", "building": null, "leisure": null }, "geometry": { "type": "Point", "coordinates": [ 77.5368719, 12.9837651 ] } },
{ "type": "Feature", "properties": { "name": "M Chinnaswamy Stadium", "amenity": null, "building": null, "leisure": "stadium" }, "geometry": { "type": "Polygon", "coordinates": [ [ [ 77.5988022, 12.9794275 ], [ 77.5988674, 12.9795026 ], [ 77.5989353, 12.9795656 ], [ 77.5990023, 12.9796173 ], [ 77.5990909, 12.979673 ], [ 77.5991801, 12.9797169 ], [ 77.5992762, 12.9797526 ], [ 77.5993583, 12.9797747 ], [ 77.5994427, 12.9797898 ], [ 77.599536, 12.979798 ], [ 77.5996467, 12.9797965 ], [ 77.5997762, 12.979779 ], [ 77.5998841, 12.979751 ], [ 77.5999867, 12.9797118 ], [ 77.6000898, 12.9796582 ], [ 77.6001934, 12.9795871 ], [ 77.6002705, 12.9795196 ], [ 77.6003456, 12.9794377 ], [ 77.6004144, 12.9793419 ], [ 77.6004652, 12.9792501 ], [ 77.6005047, 12.9791558 ], [ 77.6005351, 12.9790516 ], [ 77.6005531, 12.9789454 ], [ 77.6005587, 12.9788316 ], [ 77.6005511, 12.9787234 ], [ 77.6005286, 12.9786072 ], [ 77.6005009, 12.9785155 ], [ 77.6005506, 12.9785045 ], [ 77.6004838, 12.9783451 ], [ 77.600551, 12.9783145 ], [ 77.6004941, 12.9781927 ], [ 77.6004118, 12.9781003 ], [ 77.6003264, 12.9780219 ], [ 77.6002051, 12.9779552 ], [ 77.6000767, 12.9778984 ], [ 77.5999601, 12.9778605 ], [ 77.5999077, 12.9779439 ], [ 77.5998553, 12.9779256 ], [ 77.5997344, 12.9778988 ], [ 77.5996128, 12.9778871 ], [ 77.5994898, 12.9778903 ], [ 77.5993746, 12.9779072 ], [ 77.5992584, 12.9779385 ], [ 77.5991539, 12.9779802 ], [ 77.5990656, 12.978027 ], [ 77.5989796, 12.9780846 ], [ 77.5988991, 12.9781519 ], [ 77.5988258, 12.9782281 ], [ 77.5987621, 12.9783108 ], [ 77.5987054, 12.9784045 ], [ 77.598662, 12.9784988 ], [ 77.5986312, 12.9785901 ], [ 77.598609, 12.9786892 ], [ 77.5985976, 12.9787937 ], [ 77.5985978, 12.978896 ], [ 77.5986095, 12.9789988 ], [ 77.5986239, 12.9790613 ], [ 77.5984928, 12.9790782 ], [ 77.5985017, 12.9791431 ], [ 77.5985935, 12.9791312 ], [ 77.5986096, 12.9791962 ], [ 77.5986322, 12.9792594 ], [ 77.5986611, 12.97932 ], [ 77.5986891, 12.9793671 ], [ 77.5987209, 12.9794119 ], [ 77.5987563, 12.979454 ], [ 77.5988022, 12.9794275 ] ] ] } },
{ "type": "Feature", "properties": { "name": "Karnataka State Football Association Stadium", "amenity": null, "building": null, "leisure": "stadium" }, "geometry": { "type": "Polygon", "coordinates": [ [ [ 77.6106113, 12.9693636 ], [ 77.6106726, 12.9691287 ], [ 77.6110095, 12.9680706 ], [ 77.6110413, 12.9679739 ], [ 77.6117401, 12.9679565 ], [ 77.612043, 12.9681984 ], [ 77.6123437, 12.9683002 ], [ 77.6125681, 12.9683637 ], [ 77.6123642, 12.9687532 ], [ 77.612017, 12.9694195 ], [ 77.6119136, 12.9696179 ], [ 77.6114238, 12.9698042 ], [ 77.6106113, 12.9693636 ] ] ] } },
{ "type": "Feature", "properties": { "name": "M.K Mathulla Stadium", "amenity": null, "building": null, "leisure": "stadium" }, "geometry": { "type": "Polygon", "coordinates": [ [ [ 77.5427336, 13.0491415 ], [ 77.5438211, 13.0492031 ], [ 77.5437769, 13.0481857 ], [ 77.5437622, 13.0479482 ], [ 77.5437193, 13.0474929 ], [ 77.5433938, 13.0471261 ], [ 77.5425571, 13.0474464 ], [ 77.5427336, 13.0491415 ] ] ] } },
{ "type": "Feature", "properties": { "name": "Sree Kanteerava Indoor Stadium", "amenity": null, "building": "yes", "leisure": "stadium" }, "geometry": { "type": "Polygon", "coordinates": [ [ [ 77.5910678, 12.9691903 ], [ 77.5909801, 12.9691548 ], [ 77.5908916, 12.9690991 ], [ 77.5908337, 12.9690435 ], [ 77.5907882, 12.968988 ], [ 77.5907501, 12.9689221 ], [ 77.59073, 12.9688411 ], [ 77.5907319, 12.9687696 ], [ 77.5907495, 12.9687023 ], [ 77.5907796, 12.968646 ], [ 77.5908271, 12.9685902 ], [ 77.5908944, 12.9685369 ], [ 77.590977, 12.9684862 ], [ 77.5910713, 12.9684569 ], [ 77.591192, 12.9684358 ], [ 77.5913236, 12.9684307 ], [ 77.5914468, 12.9684526 ], [ 77.5915564, 12.968491 ], [ 77.5916378, 12.9685366 ], [ 77.5917063, 12.9686006 ], [ 77.5917753, 12.9686957 ], [ 77.5918012, 12.9687734 ], [ 77.5918109, 12.968848 ], [ 77.591794, 12.9689336 ], [ 77.5917585, 12.9690051 ], [ 77.5917094, 12.9690722 ], [ 77.5916307, 12.9691323 ], [ 77.5915525, 12.9691738 ], [ 77.5914389, 12.9692078 ], [ 77.59132, 12.9692282 ], [ 77.591195, 12.969218 ], [ 77.5910678, 12.9691903 ] ] ] } },
{ "type": "Feature", "properties": { "name": "RWF Colony Stadium", "amenity": null, "building": null, "leisure": "stadium" }, "geometry": { "type": "Polygon", "coordinates": [ [ [ 77.5796769, 13.1003704 ], [ 77.5795137, 13.1009628 ], [ 77.5794149, 13.1019938 ], [ 77.5813141, 13.1020068 ], [ 77.5813072, 13.1017045 ], [ 77.5814972, 13.1008634 ], [ 77.5796769, 13.1003704 ] ] ] } },
{ "type": "Feature", "properties": { "name": "Karnataka State Lawn Tennis Association - KSLTA", "amenity": null, "building": null, "leisure": "stadium" }, "geometry": { "type": "Polygon", "coordinates": [ [ [ 77.5944897, 12.9759123 ], [ 77.5946096, 12.975939 ], [ 77.5954424, 12.9751703 ], [ 77.5952056, 12.9749451 ], [ 77.5948275, 12.9745855 ], [ 77.593981, 12.9750324 ], [ 77.5938536, 12.9749534 ], [ 77.5934741, 12.974465 ], [ 77.5934526, 12.9745998 ], [ 77.5937573, 12.9750117 ], [ 77.5938614, 12.9750955 ], [ 77.5937439, 12.9751581 ], [ 77.5944897, 12.9759123 ] ] ] } },
{ "type": "Feature", "properties": { "name": "HSR Residents Welfare Association", "amenity": "community_centre", "building": "yes", "leisure": null }, "geometry": { "type": "Polygon", "coordinates": [ [ [ 77.6505067, 12.9178743 ], [ 77.6505941, 12.9178718 ], [ 77.6505919, 12.9177984 ], [ 77.6505045, 12.9178009 ], [ 77.6505067, 12.9178743 ] ] ] } },
{ "type": "Feature", "properties": { "name": "Bangalore Club", "amenity": "community_centre", "building": null, "leisure": "sports_centre" }, "geometry": { "type": "Polygon", "coordinates": [ [ [ 77.596926, 12.9676848 ], [ 77.5975705, 12.9680486 ], [ 77.5976329, 12.9683924 ], [ 77.5981902, 12.9683242 ], [ 77.5982874, 12.9667553 ], [ 77.5984283, 12.9665864 ], [ 77.5967642, 12.9652361 ], [ 77.5966419, 12.9657771 ], [ 77.5965194, 12.9669433 ], [ 77.5964834, 12.9673319 ], [ 77.5968962, 12.9673687 ], [ 77.596926, 12.9676848 ] ] ] } },
{ "type": "Feature", "properties": { "name": "Kalyani Kalamandira", "amenity": "community_centre", "building": null, "leisure": null }, "geometry": { "type": "Polygon", "coordinates": [ [ [ 77.6007268, 12.899945 ], [ 77.6007672, 12.8998662 ], [ 77.6006182, 12.899408 ], [ 77.599574, 12.8996966 ], [ 77.5995448, 12.8997892 ], [ 77.5992332, 12.8998724 ], [ 77.5993234, 12.9002153 ], [ 77.5996728, 12.9001365 ], [ 77.6000164, 12.9001533 ], [ 77.6007268, 12.899945 ] ] ] } },
{ "type": "Feature", "properties": { "name": "St. Thomas Parish Hall", "amenity": "community_centre", "building": "yes", "leisure": null }, "geometry": { "type": "Polygon", "coordinates": [ [ [ 77.6027675, 12.9316601 ], [ 77.6027596, 12.9316228 ], [ 77.6027195, 12.9314305 ], [ 77.6027044, 12.9313584 ], [ 77.6026727, 12.9312067 ], [ 77.602697, 12.9312019 ], [ 77.6026879, 12.931158 ], [ 77.6026757, 12.9310998 ], [ 77.6027231, 12.9310904 ], [ 77.602711, 12.9310325 ], [ 77.6028078, 12.9310133 ], [ 77.602822, 12.9310808 ], [ 77.6028942, 12.9310664 ], [ 77.602906, 12.931123 ], [ 77.6029874, 12.9311068 ], [ 77.6029951, 12.9311435 ], [ 77.6030451, 12.9313829 ], [ 77.6030735, 12.9315186 ], [ 77.6030192, 12.9315294 ], [ 77.6030354, 12.9316069 ], [ 77.6027675, 12.9316601 ] ] ] } },
{ "type": "Feature", "properties": { "name": "Chandrodaya", "amenity": "community_centre", "building": "commercial", "leisure": null }, "geometry": { "type": "Polygon", "coordinates": [ [ [ 77.601638, 12.9316837 ], [ 77.6015738, 12.9312345 ], [ 77.6018189, 12.9312011 ], [ 77.6018832, 12.9316504 ], [ 77.601638, 12.9316837 ] ] ] } },
{ "type": "Feature", "properties": { "name": "Samad House", "amenity": "community_centre", "building": "yes", "leisure": null }, "geometry": { "type": "Polygon", "coordinates": [ [ [ 77.607279, 12.9810616 ], [ 77.6074317, 12.9815133 ], [ 77.6072011, 12.9815873 ], [ 77.6070484, 12.9811356 ], [ 77.607279, 12.9810616 ] ] ] } },
{ "type": "Feature", "properties": { "name": "Donkana Field", "amenity": null, "building": null, "leisure": "stadium" }, "geometry": { "type": "Polygon", "coordinates": [ [ [ 77.5590078, 12.937065 ], [ 77.5592457, 12.9373507 ], [ 77.5592365, 12.9381501 ], [ 77.5599139, 12.9381818 ], [ 77.5597857, 12.9369611 ], [ 77.559689, 12.9366206 ], [ 77.5590078, 12.937065 ] ] ] } },
{ "type": "Feature", "properties": { "name": "Basket ball, shuttle court", "amenity": null, "building": null, "leisure": "stadium" }, "geometry": { "type": "Polygon", "coordinates": [ [ [ 77.5548077, 12.9276007 ], [ 77.5552361, 12.9276752 ], [ 77.5555915, 12.9277571 ], [ 77.5556608, 12.9274835 ], [ 77.5554858, 12.9274318 ], [ 77.555233, 12.9273828 ], [ 77.5548245, 12.927349 ], [ 77.5548077, 12.9276007 ] ] ] } },
{ "type": "Feature", "properties": { "name": "Arunodhaya", "amenity": "community_centre", "building": "commercial", "leisure": null }, "geometry": { "type": "Polygon", "coordinates": [ [ [ 77.6021414, 12.9315079 ], [ 77.602096, 12.9312031 ], [ 77.6018999, 12.9312309 ], [ 77.6019453, 12.9315357 ], [ 77.6021414, 12.9315079 ] ] ] } },
{ "type": "Feature", "properties": { "name": "Sapthagiri Kalyana Mantapa", "amenity": "community_centre", "building": "yes", "leisure": null }, "geometry": { "type": "Polygon", "coordinates": [ [ [ 77.5480203, 13.0079611 ], [ 77.5481977, 13.0079193 ], [ 77.5481816, 13.0078542 ], [ 77.5480042, 13.007896 ], [ 77.5480203, 13.0079611 ] ] ] } },
{ "type": "Feature", "properties": { "name": "Dr. B.R.Ambedkar Bhavana", "amenity": "community_centre", "building": "yes", "leisure": null }, "geometry": { "type": "Polygon", "coordinates": [ [ [ 77.5953673, 12.9926805 ], [ 77.595236, 12.9925512 ], [ 77.59517, 12.9924857 ], [ 77.595302, 12.9923597 ], [ 77.5954518, 12.9922994 ], [ 77.595409, 12.9922575 ], [ 77.5955622, 12.9921112 ], [ 77.5958035, 12.9923512 ], [ 77.5956677, 12.9924808 ], [ 77.5956342, 12.9924425 ], [ 77.595566, 12.9925779 ], [ 77.595412, 12.992725 ], [ 77.5953673, 12.9926805 ] ] ] } },
{ "type": "Feature", "properties": { "name": "Sathya Sai Samskruti Sadana", "amenity": "community_centre", "building": null, "leisure": null }, "geometry": { "type": "Polygon", "coordinates": [ [ [ 77.6094869, 12.9360226 ], [ 77.6095378, 12.9350301 ], [ 77.6100076, 12.9356402 ], [ 77.6094869, 12.9360226 ] ] ] } },
{ "type": "Feature", "properties": { "name": "Domlur Club", "amenity": "community_centre", "building": null, "leisure": "sports_centre" }, "geometry": { "type": "Polygon", "coordinates": [ [ [ 77.6364894, 12.9649595 ], [ 77.637547, 12.9638289 ], [ 77.6376736, 12.9640822 ], [ 77.6366908, 12.965125 ], [ 77.6364894, 12.9649595 ] ] ] } },
{ "type": "Feature", "properties": { "name": "Sharana Seva Samaja", "amenity": "community_centre", "building": null, "leisure": null }, "geometry": { "type": "Polygon", "coordinates": [ [ [ 77.5495741, 13.0097559 ], [ 77.549399, 13.0097911 ], [ 77.5493563, 13.0097212 ], [ 77.5490643, 13.0090404 ], [ 77.5493533, 13.0089806 ], [ 77.5495741, 13.0097559 ] ] ] } },
{ "type": "Feature", "properties": { "name": "Chandragiri Palace", "amenity": "community_centre", "building": "yes", "leisure": null }, "geometry": { "type": "Polygon", "coordinates": [ [ [ 77.5261376, 12.9586105 ], [ 77.52636, 12.9585189 ], [ 77.5263129, 12.9584101 ], [ 77.5260905, 12.9585017 ], [ 77.5261376, 12.9586105 ] ] ] } },
{ "type": "Feature", "properties": { "name": "Dwarakanath Bhavan", "amenity": "community_centre", "building": "yes", "leisure": null }, "geometry": { "type": "Polygon", "coordinates": [ [ [ 77.5733496, 12.941019 ], [ 77.57335, 12.9407798 ], [ 77.5736353, 12.9407826 ], [ 77.5736274, 12.9410216 ], [ 77.5733496, 12.941019 ] ] ] } },
{ "type": "Feature", "properties": { "name": "Shiva Shakthi Convention Hall", "amenity": "community_centre", "building": "yes", "leisure": null }, "geometry": { "type": "Polygon", "coordinates": [ [ [ 77.5763349, 12.9372076 ], [ 77.5763391, 12.9369814 ], [ 77.5764066, 12.9369826 ], [ 77.5764061, 12.9370114 ], [ 77.5764473, 12.9370121 ], [ 77.5764476, 12.9369948 ], [ 77.576608, 12.9369976 ], [ 77.5766073, 12.9370374 ], [ 77.5766455, 12.9370381 ], [ 77.5766433, 12.9371548 ], [ 77.5766045, 12.9371541 ], [ 77.5766034, 12.9372108 ], [ 77.5764547, 12.9372082 ], [ 77.5764557, 12.9371559 ], [ 77.5763863, 12.9371546 ], [ 77.5763853, 12.9372085 ], [ 77.5763349, 12.9372076 ] ] ] } },
{ "type": "Feature", "properties": { "name": "Income Tax CPC", "amenity": "townhall", "building": null, "leisure": null }, "geometry": { "type": "Polygon", "coordinates": [ [ [ 77.6579332, 12.86252 ], [ 77.6584658, 12.8629001 ], [ 77.6582228, 12.8632378 ], [ 77.6580697, 12.8632344 ], [ 77.6575496, 12.8628887 ], [ 77.6579332, 12.86252 ] ] ] } },
{ "type": "Feature", "properties": { "name": "Venkatadri Kalyana Mantapa", "amenity": "community_centre", "building": "yes", "leisure": null }, "geometry": { "type": "Polygon", "coordinates": [ [ [ 77.5545421, 12.9257242 ], [ 77.5549406, 12.9255844 ], [ 77.5550139, 12.9257829 ], [ 77.5546154, 12.9259227 ], [ 77.5545421, 12.9257242 ] ] ] } },
{ "type": "Feature", "properties": { "name": "Kodava Samaja", "amenity": "community_centre", "building": null, "leisure": null }, "geometry": { "type": "Polygon", "coordinates": [ [ [ 77.5949068, 12.9943032 ], [ 77.5948354, 12.9941527 ], [ 77.594846, 12.9941479 ], [ 77.5948724, 12.994136 ], [ 77.5949793, 12.9943612 ], [ 77.5951642, 12.9947507 ], [ 77.5952031, 12.9948325 ], [ 77.5946562, 12.995079 ], [ 77.594397, 12.9945331 ], [ 77.5949068, 12.9943032 ] ] ] } },
{ "type": "Feature", "properties": { "name": "Gandhi Bhavan", "amenity": "community_centre", "building": null, "leisure": null }, "geometry": { "type": "Polygon", "coordinates": [ [ [ 77.5798453, 12.9882259 ], [ 77.5803034, 12.9884317 ], [ 77.580627, 12.9885821 ], [ 77.5808096, 12.9884539 ], [ 77.580209, 12.9874737 ], [ 77.5801885, 12.987516 ], [ 77.5798453, 12.9882259 ] ] ] } },
{ "type": "Feature", "properties": { "name": "Dr. AIT College Ground", "amenity": null, "building": null, "leisure": "stadium" }, "geometry": { "type": "Polygon", "coordinates": [ [ [ 77.5059015, 12.96612 ], [ 77.505658, 12.9652591 ], [ 77.506567, 12.9649899 ], [ 77.5068895, 12.9654571 ], [ 77.5070377, 12.9657788 ], [ 77.5070703, 12.9658496 ], [ 77.5068402, 12.9661379 ], [ 77.5063621, 12.9661982 ], [ 77.5059015, 12.96612 ] ] ] } },
{ "type": "Feature", "properties": { "name": "SJBIT Ground", "amenity": null, "building": null, "leisure": "stadium" }, "geometry": { "type": "Polygon", "coordinates": [ [ [ 77.4967714, 12.89704 ], [ 77.4965464, 12.8969461 ], [ 77.4964607, 12.8964657 ], [ 77.49645, 12.8959854 ], [ 77.4966643, 12.8955886 ], [ 77.4970392, 12.8955677 ], [ 77.497307, 12.8956826 ], [ 77.4974463, 12.8963718 ], [ 77.4974355, 12.8969669 ], [ 77.4970606, 12.8971131 ], [ 77.4967714, 12.89704 ] ] ] } },
{ "type": "Feature", "properties": { "name": "Hockey Stadium", "amenity": null, "building": null, "leisure": "stadium" }, "geometry": { "type": "Polygon", "coordinates": [ [ [ 77.6000428, 12.9624977 ], [ 77.5996372, 12.9614267 ], [ 77.5996833, 12.9614029 ], [ 77.5997347, 12.9613777 ], [ 77.5997749, 12.9614928 ], [ 77.6006837, 12.960933 ], [ 77.6009181, 12.9608 ], [ 77.6012954, 12.9605714 ], [ 77.6014122, 12.9610129 ], [ 77.6012714, 12.962228 ], [ 77.6010059, 12.9622863 ], [ 77.6000428, 12.9624977 ] ] ] } },
{ "type": "Feature", "properties": { "name": "Sri Venkateshwara Marriage Hall", "amenity": "community_centre", "building": "yes", "leisure": null }, "geometry": { "type": "Polygon", "coordinates": [ [ [ 77.5001364, 12.9532652 ], [ 77.5000436, 12.9530319 ], [ 77.4998227, 12.9531154 ], [ 77.4999213, 12.9533634 ], [ 77.5001422, 12.95328 ], [ 77.5001364, 12.9532652 ] ] ] } },
{ "type": "Feature", "properties": { "name": "Terapanth Bhavan", "amenity": "community_centre", "building": "community_centre", "leisure": null }, "geometry": { "type": "Polygon", "coordinates": [ [ [ 77.5544879, 12.9896917 ], [ 77.5544802, 12.9895321 ], [ 77.554574, 12.9895278 ], [ 77.5545817, 12.9896874 ], [ 77.5544879, 12.9896917 ] ] ] } },
{ "type": "Feature", "properties": { "name": "Samudaya Bhavan", "amenity": "community_centre", "building": "yes", "leisure": null }, "geometry": { "type": "Polygon", "coordinates": [ [ [ 77.5520993, 12.993669 ], [ 77.5520924, 12.9934325 ], [ 77.5525402, 12.9934202 ], [ 77.5525471, 12.9936567 ], [ 77.5520993, 12.993669 ] ] ] } },
{ "type": "Feature", "properties": { "name": "Lakshmi Convention Hall", "amenity": "community_centre", "building": "yes", "leisure": null }, "geometry": { "type": "Polygon", "coordinates": [ [ [ 77.5490316, 13.0019856 ], [ 77.5492619, 13.0020129 ], [ 77.5492856, 13.0018227 ], [ 77.5490554, 13.0017955 ], [ 77.5490316, 13.0019856 ] ] ] } },
{ "type": "Feature", "properties": { "name": "Sri Suryodaya Kalyana Mantapa", "amenity": "community_centre", "building": "yes", "leisure": null }, "geometry": { "type": "Polygon", "coordinates": [ [ [ 77.5475918, 12.9747937 ], [ 77.5478606, 12.9747887 ], [ 77.5478574, 12.9746238 ], [ 77.5475886, 12.9746289 ], [ 77.5475918, 12.9747937 ] ] ] } },
{ "type": "Feature", "properties": { "name": "Seva Sadan", "amenity": "community_centre", "building": null, "leisure": null }, "geometry": { "type": "Polygon", "coordinates": [ [ [ 77.5700626, 13.0040204 ], [ 77.5700687, 13.0044806 ], [ 77.5704345, 13.004476 ], [ 77.5704284, 13.0040158 ], [ 77.5700626, 13.0040204 ] ] ] } },
{ "type": "Feature", "properties": { "name": "SBN Hall", "amenity": "community_centre", "building": "yes", "leisure": null }, "geometry": { "type": "Polygon", "coordinates": [ [ [ 77.5674029, 12.9452298 ], [ 77.5676322, 12.9452427 ], [ 77.5676392, 12.9451249 ], [ 77.5674099, 12.945112 ], [ 77.5674029, 12.9452298 ] ] ] } },
{ "type": "Feature", "properties": { "name": "Ganjam Mantap", "amenity": "community_centre", "building": "yes", "leisure": null }, "geometry": { "type": "Polygon", "coordinates": [ [ [ 77.5673262, 12.9463038 ], [ 77.5674085, 12.9463038 ], [ 77.5674085, 12.9462658 ], [ 77.5675214, 12.9462658 ], [ 77.5675214, 12.9461219 ], [ 77.5673842, 12.9461219 ], [ 77.5673842, 12.94609 ], [ 77.5673262, 12.94609 ], [ 77.5673262, 12.9463038 ] ] ] } },
{ "type": "Feature", "properties": { "name": "Banjara Bhavana", "amenity": "community_centre", "building": "yes", "leisure": null }, "geometry": { "type": "Polygon", "coordinates": [ [ [ 77.5963886, 12.99223 ], [ 77.5962133, 12.9924513 ], [ 77.5962492, 12.9924783 ], [ 77.5963262, 12.9925363 ], [ 77.5963846, 12.9925802 ], [ 77.5965599, 12.9923588 ], [ 77.5963886, 12.99223 ] ] ] } },
{ "type": "Feature", "properties": { "name": "DRDO Community Hall", "amenity": "community_centre", "building": "yes", "leisure": null }, "geometry": { "type": "Polygon", "coordinates": [ [ [ 77.6628949, 12.9848295 ], [ 77.6634004, 12.9847972 ], [ 77.6633854, 12.9845741 ], [ 77.6628799, 12.9846063 ], [ 77.6628949, 12.9848295 ] ] ] } },
{ "type": "Feature", "properties": { "name": "Kashmir Bhavan", "amenity": "community_centre", "building": "yes", "leisure": null }, "geometry": { "type": "Polygon", "coordinates": [ [ [ 77.5986271, 12.9261059 ], [ 77.5988021, 12.9260937 ], [ 77.598783, 12.9258313 ], [ 77.5986079, 12.9258434 ], [ 77.5986271, 12.9261059 ] ] ] } },
{ "type": "Feature", "properties": { "name": "A.G.N. Kalyana Mandira", "amenity": "community_centre", "building": "commercial", "leisure": null }, "geometry": { "type": "Polygon", "coordinates": [ [ [ 77.5969657, 12.8894231 ], [ 77.5972978, 12.8892862 ], [ 77.5972147, 12.8890964 ], [ 77.5968884, 12.8892323 ], [ 77.5969657, 12.8894231 ] ] ] } },
{ "type": "Feature", "properties": { "name": "Sri Dharmasthala Manjunathaswamy Kalyana Mantapa", "amenity": "townhall", "building": "yes", "leisure": null }, "geometry": { "type": "Polygon", "coordinates": [ [ [ 77.5681557, 12.9434583 ], [ 77.568392, 12.943468 ], [ 77.5683947, 12.9432752 ], [ 77.5683622, 12.9432756 ], [ 77.5683363, 12.9432752 ], [ 77.5682964, 12.943278 ], [ 77.5682233, 12.9431912 ], [ 77.5681579, 12.943187 ], [ 77.568159, 12.9432431 ], [ 77.568224, 12.9433229 ], [ 77.5681557, 12.9433243 ], [ 77.5681557, 12.9434583 ] ] ] } },
{ "type": "Feature", "properties": { "name": null, "amenity": "community_centre", "building": "yes", "leisure": null }, "geometry": { "type": "Polygon", "coordinates": [ [ [ 77.5522227, 12.8962785 ], [ 77.5523682, 12.8962785 ], [ 77.5523682, 12.8960801 ], [ 77.5522227, 12.8960801 ], [ 77.5522227, 12.8962785 ] ] ] } },
{ "type": "Feature", "properties": { "name": "Dwaraka Samsthana Hall", "amenity": "community_centre", "building": "yes", "leisure": null }, "geometry": { "type": "Polygon", "coordinates": [ [ [ 77.5729686, 12.9429146 ], [ 77.5731046, 12.9429115 ], [ 77.5731017, 12.9427916 ], [ 77.5729657, 12.9427947 ], [ 77.5729686, 12.9429146 ] ] ] } },
{ "type": "Feature", "properties": { "name": "Anakra Community Hall", "amenity": "community_centre", "building": "commercial", "leisure": null }, "geometry": { "type": "Polygon", "coordinates": [ [ [ 77.5753278, 12.9324162 ], [ 77.5755543, 12.9324523 ], [ 77.5755882, 12.9322501 ], [ 77.5753617, 12.9322141 ], [ 77.5753278, 12.9324162 ] ] ] } },
{ "type": "Feature", "properties": { "name": "Meenakshi Kalyana Matapa", "amenity": "community_centre", "building": "yes", "leisure": null }, "geometry": { "type": "Polygon", "coordinates": [ [ [ 77.5112242, 12.9245276 ], [ 77.5116027, 12.9245396 ], [ 77.5116105, 12.9243086 ], [ 77.5115465, 12.9243065 ], [ 77.5115446, 12.924365 ], [ 77.51123, 12.9243549 ], [ 77.5112242, 12.9245276 ] ] ] } },
{ "type": "Feature", "properties": { "name": "Meenakshi Padmavathi Kalyana Matapa", "amenity": "community_centre", "building": "yes", "leisure": null }, "geometry": { "type": "Polygon", "coordinates": [ [ [ 77.5112044, 12.924943 ], [ 77.5115854, 12.9249502 ], [ 77.511589, 12.9247675 ], [ 77.5112081, 12.9247603 ], [ 77.5112044, 12.924943 ] ] ] } },
{ "type": "Feature", "properties": { "name": "Saligrama Party Hall", "amenity": "community_centre", "building": "yes", "leisure": null }, "geometry": { "type": "Polygon", "coordinates": [ [ [ 77.5476501, 12.9353364 ], [ 77.5477386, 12.9352832 ], [ 77.5476941, 12.9352128 ], [ 77.5476056, 12.935266 ], [ 77.5476501, 12.9353364 ] ] ] } },
{ "type": "Feature", "properties": { "name": "Vijayanagara Vipra Vrinda", "amenity": "community_centre", "building": "yes", "leisure": null }, "geometry": { "type": "Polygon", "coordinates": [ [ [ 77.5290764, 12.9765649 ], [ 77.5291417, 12.9765609 ], [ 77.529136, 12.9764731 ], [ 77.5290707, 12.9764771 ], [ 77.5290764, 12.9765649 ] ] ] } },
{ "type": "Feature", "properties": { "name": "Krishna Community Hall", "amenity": "community_centre", "building": "commercial", "leisure": null }, "geometry": { "type": "Polygon", "coordinates": [ [ [ 77.712321, 13.0022766 ], [ 77.7124072, 13.0022401 ], [ 77.7123804, 13.0021801 ], [ 77.7124195, 13.0021636 ], [ 77.7123209, 13.0019423 ], [ 77.712182, 13.002001 ], [ 77.7122905, 13.0022446 ], [ 77.7123042, 13.0022388 ], [ 77.712321, 13.0022766 ] ] ] } },
{ "type": "Feature", "properties": { "name": "Heritage Convention Center", "amenity": "community_centre", "building": "yes", "leisure": null }, "geometry": { "type": "Polygon", "coordinates": [ [ [ 77.485215, 12.9902668 ], [ 77.4854001, 12.9902665 ], [ 77.4853996, 12.9899986 ], [ 77.4852145, 12.989999 ], [ 77.485215, 12.9902668 ] ] ] } },
{ "type": "Feature", "properties": { "name": "Club House (Prestige Ozone)", "amenity": "community_centre", "building": "yes", "leisure": null }, "geometry": { "type": "Polygon", "coordinates": [ [ [ 77.7501145, 12.9597278 ], [ 77.7497385, 12.9597167 ], [ 77.7497316, 12.9599365 ], [ 77.7497814, 12.959938 ], [ 77.7497734, 12.9601945 ], [ 77.7498652, 12.9601972 ], [ 77.7498668, 12.9601474 ], [ 77.7500425, 12.9601526 ], [ 77.7500488, 12.9599489 ], [ 77.7501076, 12.9599506 ], [ 77.7501145, 12.9597278 ] ] ] } },
{ "type": "Feature", "properties": { "name": "N G R Kalyana Mantap", "amenity": "community_centre", "building": "yes", "leisure": null }, "geometry": { "type": "Polygon", "coordinates": [ [ [ 77.6000382, 12.9088319 ], [ 77.600028, 12.9089715 ], [ 77.5997286, 12.9089505 ], [ 77.5997276, 12.9089639 ], [ 77.5996419, 12.9089579 ], [ 77.5996536, 12.9087991 ], [ 77.5997174, 12.9088036 ], [ 77.5997151, 12.9088351 ], [ 77.5998836, 12.9088469 ], [ 77.5998855, 12.9088212 ], [ 77.6000382, 12.9088319 ] ] ] } },
{ "type": "Feature", "properties": { "name": null, "amenity": null, "building": null, "leisure": "stadium" }, "geometry": { "type": "Polygon", "coordinates": [ [ [ 77.6357968, 13.1173433 ], [ 77.6357498, 13.1172723 ], [ 77.635731, 13.1171739 ], [ 77.6358485, 13.1163133 ], [ 77.6358955, 13.11624 ], [ 77.6359895, 13.1161576 ], [ 77.6361023, 13.116105 ], [ 77.6362292, 13.1161118 ], [ 77.6363491, 13.1161691 ], [ 77.6364595, 13.1162583 ], [ 77.6364972, 13.1163659 ], [ 77.6365042, 13.116462 ], [ 77.6363914, 13.1172792 ], [ 77.636342, 13.1173547 ], [ 77.6362739, 13.1174234 ], [ 77.6361846, 13.1174737 ], [ 77.6360788, 13.1174921 ], [ 77.6359519, 13.1174715 ], [ 77.6358461, 13.1174005 ], [ 77.6357968, 13.1173433 ] ] ] } },
{ "type": "Feature", "properties": { "name": "Bungalow 7", "amenity": "community_centre", "building": "yes", "leisure": null }, "geometry": { "type": "Polygon", "coordinates": [ [ [ 77.6158707, 13.0044182 ], [ 77.6160706, 13.0043462 ], [ 77.6159626, 13.0040754 ], [ 77.6157647, 13.0041533 ], [ 77.6158707, 13.0044182 ] ] ] } },
{ "type": "Feature", "properties": { "name": "Sri Mahan Odukathur Swamigal Mutt", "amenity": "community_centre", "building": null, "leisure": null }, "geometry": { "type": "Polygon", "coordinates": [ [ [ 77.6157479, 12.9807578 ], [ 77.6156322, 12.9804216 ], [ 77.6158121, 12.9803526 ], [ 77.6159318, 12.9806937 ], [ 77.615772, 12.9807505 ], [ 77.6157479, 12.9807578 ] ] ] } },
{ "type": "Feature", "properties": { "name": "New Town Club", "amenity": "community_centre", "building": "yes", "leisure": null }, "geometry": { "type": "Polygon", "coordinates": [ [ [ 77.5848109, 13.0993139 ], [ 77.5848901, 13.0993547 ], [ 77.5848632, 13.0994129 ], [ 77.5848781, 13.099426 ], [ 77.5848901, 13.0994492 ], [ 77.5848946, 13.0994856 ], [ 77.5849439, 13.0995045 ], [ 77.5848916, 13.0996035 ], [ 77.5848744, 13.0995951 ], [ 77.5848807, 13.0995758 ], [ 77.584824, 13.0995497 ], [ 77.5848157, 13.0995653 ], [ 77.5848008, 13.0995584 ], [ 77.5848154, 13.0995926 ], [ 77.5847415, 13.099619 ], [ 77.5846522, 13.0994328 ], [ 77.5847073, 13.0994005 ], [ 77.5847432, 13.0993786 ], [ 77.5848109, 13.0993139 ] ] ] } },
{ "type": "Feature", "properties": { "name": "Koramangala Indoor Stadium", "amenity": null, "building": null, "leisure": "stadium" }, "geometry": { "type": "Polygon", "coordinates": [ [ [ 77.6227267, 12.9443904 ], [ 77.6228515, 12.9442806 ], [ 77.6233998, 12.9437899 ], [ 77.6235626, 12.9435554 ], [ 77.6228124, 12.9426207 ], [ 77.6220377, 12.9432967 ], [ 77.6227019, 12.944351 ], [ 77.6227267, 12.9443904 ] ] ] } },
{ "type": "Feature", "properties": { "name": "Chamara Vajra", "amenity": "community_centre", "building": null, "leisure": null }, "geometry": { "type": "Polygon", "coordinates": [ [ [ 77.5946895, 13.0003317 ], [ 77.594508, 13.0008992 ], [ 77.5943946, 13.0012719 ], [ 77.5943775, 13.0013327 ], [ 77.5941208, 13.0022479 ], [ 77.5939015, 13.0021755 ], [ 77.5938816, 13.002245 ], [ 77.5935817, 13.0032929 ], [ 77.5930881, 13.0032301 ], [ 77.5926698, 13.0022739 ], [ 77.5923839, 13.0016203 ], [ 77.5928197, 13.0013705 ], [ 77.5934422, 12.9992329 ], [ 77.5941865, 12.9993819 ], [ 77.5942309, 13.0001243 ], [ 77.5942328, 13.0001559 ], [ 77.5946895, 13.0003317 ] ] ] } },
{ "type": "Feature", "properties": { "name": "Shilpaniketan Dakshin Kannada Vishwa Brahmin Sangha(R)", "amenity": "community_centre", "building": "yes", "leisure": null }, "geometry": { "type": "Polygon", "coordinates": [ [ [ 77.5852373, 13.1008062 ], [ 77.5852361, 13.1008888 ], [ 77.5852975, 13.1008897 ], [ 77.5852972, 13.1009088 ], [ 77.5854609, 13.1009111 ], [ 77.5854615, 13.100872 ], [ 77.5855127, 13.1008727 ], [ 77.5855137, 13.1008034 ], [ 77.5854735, 13.1008028 ], [ 77.5854743, 13.1007501 ], [ 77.585308, 13.1007478 ], [ 77.5853071, 13.1008072 ], [ 77.5852373, 13.1008062 ] ] ] } },
{ "type": "Feature", "properties": { "name": "Bangalore Tamil Sangam", "amenity": "community_centre", "building": null, "leisure": null }, "geometry": { "type": "Polygon", "coordinates": [ [ [ 77.6180337, 12.9845986 ], [ 77.6181155, 12.9846979 ], [ 77.6177279, 12.9848953 ], [ 77.6176601, 12.9847694 ], [ 77.6180337, 12.9845986 ] ] ] } },
{ "type": "Feature", "properties": { "name": "Purva Heights Club House", "amenity": "community_centre", "building": "yes", "leisure": null }, "geometry": { "type": "Polygon", "coordinates": [ [ [ 77.6025945, 12.904372 ], [ 77.6026476, 12.9044292 ], [ 77.6026874, 12.9043941 ], [ 77.6027644, 12.904477 ], [ 77.6028487, 12.9044026 ], [ 77.6027185, 12.9042625 ], [ 77.6025945, 12.904372 ] ] ] } },
{ "type": "Feature", "properties": { "name": "Rainbow Residency Club House", "amenity": "community_centre", "building": null, "leisure": null }, "geometry": { "type": "Polygon", "coordinates": [ [ [ 77.6825657, 12.9069427 ], [ 77.6822868, 12.9069707 ], [ 77.6822312, 12.9063321 ], [ 77.682203, 12.905872 ], [ 77.6828687, 12.9058167 ], [ 77.6828624, 12.9058987 ], [ 77.6829536, 12.9058896 ], [ 77.6828973, 12.9060825 ], [ 77.6828055, 12.9060615 ], [ 77.6827937, 12.9061436 ], [ 77.6827711, 12.9062636 ], [ 77.6828221, 12.9062851 ], [ 77.6828315, 12.9064732 ], [ 77.6828695, 12.9064862 ], [ 77.6829101, 12.9065411 ], [ 77.682942, 12.9067776 ], [ 77.6829504, 12.9069163 ], [ 77.6825657, 12.9069427 ] ] ] } },
{ "type": "Feature", "properties": { "name": null, "amenity": "community_centre", "building": "yes", "leisure": null }, "geometry": { "type": "Polygon", "coordinates": [ [ [ 77.6734413, 12.9178337 ], [ 77.6735003, 12.9177866 ], [ 77.6735406, 12.9177474 ], [ 77.6735875, 12.9176847 ], [ 77.6735834, 12.9176576 ], [ 77.6736185, 12.9176902 ], [ 77.6736644, 12.9177823 ], [ 77.6736339, 12.9177961 ], [ 77.6736264, 12.9177788 ], [ 77.6734547, 12.9178664 ], [ 77.6734413, 12.9178337 ] ] ] } },
{ "type": "Feature", "properties": { "name": "Jogupalya Community Hall", "amenity": "community_centre", "building": null, "leisure": null }, "geometry": { "type": "Polygon", "coordinates": [ [ [ 77.6312458, 12.9721802 ], [ 77.6315664, 12.9721245 ], [ 77.6315641, 12.9719333 ], [ 77.6317288, 12.971923 ], [ 77.6317313, 12.971488 ], [ 77.6312107, 12.9713134 ], [ 77.6312458, 12.9721802 ] ] ] } },
{ "type": "Feature", "properties": { "name": "Dr. Bheem Rao Palace", "amenity": "community_centre", "building": null, "leisure": null }, "geometry": { "type": "Polygon", "coordinates": [ [ [ 77.5508057, 12.9900084 ], [ 77.5510445, 12.9900241 ], [ 77.5510325, 12.9894283 ], [ 77.5506281, 12.9894348 ], [ 77.5508057, 12.9900084 ] ] ] } },
{ "type": "Feature", "properties": { "name": "Radha Krishna Kalyana Mantapa", "amenity": "community_centre", "building": null, "leisure": null }, "geometry": { "type": "Polygon", "coordinates": [ [ [ 77.5857861, 13.0668349 ], [ 77.5858165, 13.0668245 ], [ 77.5867825, 13.0668953 ], [ 77.5871109, 13.0676209 ], [ 77.5862095, 13.0676513 ], [ 77.5859133, 13.0676543 ], [ 77.5857122, 13.0676564 ], [ 77.5855897, 13.0674241 ], [ 77.585751, 13.0672932 ], [ 77.5857609, 13.0671917 ], [ 77.5857861, 13.0668349 ] ] ] } },
{ "type": "Feature", "properties": { "name": "White Palace Convention Centre", "amenity": "community_centre", "building": "commercial", "leisure": null }, "geometry": { "type": "Polygon", "coordinates": [ [ [ 77.4998827, 12.9260214 ], [ 77.5004044, 12.9264671 ], [ 77.500281, 12.9266291 ], [ 77.4997097, 12.9262762 ], [ 77.4998827, 12.9260214 ] ] ] } },
{ "type": "Feature", "properties": { "name": "Tamara Weddings & Events", "amenity": "community_centre", "building": null, "leisure": null }, "geometry": { "type": "Polygon", "coordinates": [ [ [ 77.5699165, 12.8591296 ], [ 77.5694981, 12.8593009 ], [ 77.5693171, 12.8593794 ], [ 77.5692058, 12.8591846 ], [ 77.5695645, 12.8590247 ], [ 77.5697385, 12.8589512 ], [ 77.5698012, 12.8589263 ], [ 77.5698519, 12.8590157 ], [ 77.5699165, 12.8591296 ] ] ] } },
{ "type": "Feature", "properties": { "name": "SLV", "amenity": "community_centre", "building": null, "leisure": null }, "geometry": { "type": "Polygon", "coordinates": [ [ [ 77.5279427, 12.8566428 ], [ 77.528007, 12.8569252 ], [ 77.5285529, 12.8568076 ], [ 77.5284898, 12.856516 ], [ 77.5279427, 12.8566428 ] ] ] } },
{ "type": "Feature", "properties": { "name": "Bangalore International Centre - BIC", "amenity": "community_centre", "building": null, "leisure": null }, "geometry": { "type": "Polygon", "coordinates": [ [ [ 77.6352493, 12.967275 ], [ 77.6350161, 12.9672086 ], [ 77.6352011, 12.966422 ], [ 77.6355565, 12.9665561 ], [ 77.6355219, 12.9666366 ], [ 77.6354079, 12.9669037 ], [ 77.635297, 12.9671632 ], [ 77.6352493, 12.967275 ] ] ] } },
{ "type": "Feature", "properties": { "name": "V Legacy", "amenity": "community_centre", "building": null, "leisure": null }, "geometry": { "type": "Polygon", "coordinates": [ [ [ 77.5274623, 12.9326396 ], [ 77.5270489, 12.9326397 ], [ 77.5268409, 12.9317238 ], [ 77.5272024, 12.9315716 ], [ 77.5276691, 12.9315076 ], [ 77.5280318, 12.9314847 ], [ 77.5283317, 12.9315156 ], [ 77.5282741, 12.9326028 ], [ 77.5274623, 12.9326396 ] ] ] } },
{ "type": "Feature", "properties": { "name": "Poornima Palace Convention Center", "amenity": "community_centre", "building": "yes", "leisure": null }, "geometry": { "type": "Polygon", "coordinates": [ [ [ 77.5025931, 12.925173 ], [ 77.5019333, 12.9256383 ], [ 77.5022632, 12.926088 ], [ 77.5029257, 12.9255861 ], [ 77.5025931, 12.925173 ] ] ] } },
{ "type": "Feature", "properties": { "name": "Club Lounge", "amenity": "community_centre", "building": "yes", "leisure": null }, "geometry": { "type": "Polygon", "coordinates": [ [ [ 77.594102, 13.0496677 ], [ 77.5943421, 13.0497174 ], [ 77.5943461, 13.0493829 ], [ 77.5941624, 13.0494587 ], [ 77.594102, 13.0496677 ] ] ] } },
{ "type": "Feature", "properties": { "name": "MR Convention Hall", "amenity": "community_centre", "building": null, "leisure": null }, "geometry": { "type": "Polygon", "coordinates": [ [ [ 77.5298068, 12.944868 ], [ 77.5295976, 12.9451294 ], [ 77.5294769, 12.9454065 ], [ 77.5299731, 12.9454718 ], [ 77.5302225, 12.9452052 ], [ 77.5304264, 12.945064 ], [ 77.5304425, 12.9449307 ], [ 77.5298068, 12.944868 ] ] ] } },
{ "type": "Feature", "properties": { "name": "Utsava Convention Hall", "amenity": "community_centre", "building": null, "leisure": null }, "geometry": { "type": "Polygon", "coordinates": [ [ [ 77.5810313, 13.1092171 ], [ 77.5813768, 13.1093513 ], [ 77.5816161, 13.1087672 ], [ 77.5812475, 13.108624 ], [ 77.5811515, 13.1088583 ], [ 77.5811003, 13.1088384 ], [ 77.5810491, 13.1089634 ], [ 77.5811234, 13.1089923 ], [ 77.5810313, 13.1092171 ] ] ] } },
{ "type": "Feature", "properties": { "name": null, "amenity": "community_centre", "building": null, "leisure": null }, "geometry": { "type": "Polygon", "coordinates": [ [ [ 77.5561762, 13.0410662 ], [ 77.5563575, 13.0411447 ], [ 77.5563872, 13.0410796 ], [ 77.5564201, 13.0410938 ], [ 77.5565309, 13.0408505 ], [ 77.5565095, 13.0408412 ], [ 77.5565281, 13.0408004 ], [ 77.5563353, 13.040717 ], [ 77.5561762, 13.0410662 ] ] ] } },
{ "type": "Feature", "properties": { "name": "BEL Kalyana Mantapa", "amenity": "community_centre", "building": "yes", "leisure": null }, "geometry": { "type": "Polygon", "coordinates": [ [ [ 77.5513528, 13.0503328 ], [ 77.5518274, 13.050779 ], [ 77.5520486, 13.0505558 ], [ 77.5519735, 13.0504852 ], [ 77.5520043, 13.0504541 ], [ 77.551962, 13.0504143 ], [ 77.5519832, 13.050393 ], [ 77.5518826, 13.0502984 ], [ 77.5518212, 13.0503603 ], [ 77.5518594, 13.0503963 ], [ 77.5518065, 13.0504497 ], [ 77.5516795, 13.0503303 ], [ 77.551647, 13.0503631 ], [ 77.5514792, 13.0502053 ], [ 77.5514425, 13.0502422 ], [ 77.5514749, 13.0502726 ], [ 77.5514196, 13.0503285 ], [ 77.5513872, 13.0502981 ], [ 77.5513528, 13.0503328 ] ] ] } },
{ "type": "Feature", "properties": { "name": "Ramanashree California Resort", "amenity": "community_centre", "building": null, "leisure": "resort" }, "geometry": { "type": "Polygon", "coordinates": [ [ [ 77.5768138, 13.1147645 ], [ 77.57891, 13.1146926 ], [ 77.5790025, 13.1144615 ], [ 77.5775313, 13.1143139 ], [ 77.5768259, 13.1143413 ], [ 77.5768138, 13.1147645 ] ] ] } },
{ "type": "Feature", "properties": { "name": "Y Muniswamappa Kalyana Mantapa", "amenity": "community_centre", "building": null, "leisure": null }, "geometry": { "type": "Polygon", "coordinates": [ [ [ 77.5555024, 13.0169019 ], [ 77.5559731, 13.0169294 ], [ 77.556421, 13.0168379 ], [ 77.5561662, 13.0164211 ], [ 77.5558068, 13.0160317 ], [ 77.5553069, 13.0168069 ], [ 77.5555024, 13.0169019 ] ] ] } },
{ "type": "Feature", "properties": { "name": "Jasma Mandir Kalyana Mantapa", "amenity": "community_centre", "building": null, "leisure": null }, "geometry": { "type": "Polygon", "coordinates": [ [ [ 77.6142941, 12.9582747 ], [ 77.613845, 12.9583283 ], [ 77.6139013, 12.958776 ], [ 77.6144554, 12.9587098 ], [ 77.614408, 12.9583322 ], [ 77.6142941, 12.9582747 ] ] ] } },
{ "type": "Feature", "properties": { "name": "Samprasiddhi Sports Estadio", "amenity": null, "building": null, "leisure": "stadium" }, "geometry": { "type": "Polygon", "coordinates": [ [ [ 77.6345498, 13.0921205 ], [ 77.6355395, 13.0917129 ], [ 77.6356789, 13.091402 ], [ 77.6356253, 13.0907358 ], [ 77.6355689, 13.0907355 ], [ 77.6343647, 13.090728 ], [ 77.6345498, 13.0921205 ] ] ] } },
{ "type": "Feature", "properties": { "name": null, "amenity": "community_centre", "building": "yes", "leisure": null }, "geometry": { "type": "Polygon", "coordinates": [ [ [ 77.5312732, 13.0541174 ], [ 77.5314712, 13.0541414 ], [ 77.5314917, 13.0539812 ], [ 77.5312937, 13.0539572 ], [ 77.5312732, 13.0541174 ] ] ] } },
{ "type": "Feature", "properties": { "name": "RG Royal Convention Hall", "amenity": "community_centre", "building": null, "leisure": null }, "geometry": { "type": "Polygon", "coordinates": [ [ [ 77.5491482, 13.0172887 ], [ 77.549281, 13.0170665 ], [ 77.549071, 13.0166229 ], [ 77.5483992, 13.0169451 ], [ 77.5484249, 13.0170008 ], [ 77.5485675, 13.0173096 ], [ 77.549053, 13.017094 ], [ 77.5491482, 13.0172887 ] ] ] } },
{ "type": "Feature", "properties": { "name": "Kalyana Mantapa", "amenity": "community_centre", "building": null, "leisure": null }, "geometry": { "type": "Polygon", "coordinates": [ [ [ 77.5507991, 13.0120216 ], [ 77.5511129, 13.0121274 ], [ 77.5512162, 13.0118974 ], [ 77.5507951, 13.0117106 ], [ 77.5507991, 13.0120216 ] ] ] } },
{ "type": "Feature", "properties": { "name": "Catholic Club", "amenity": "community_centre", "building": null, "leisure": "social_club" }, "geometry": { "type": "Polygon", "coordinates": [ [ [ 77.6061974, 12.9693648 ], [ 77.6062564, 12.9696503 ], [ 77.6057595, 12.969632 ], [ 77.6057636, 12.9694747 ], [ 77.6056064, 12.9694735 ], [ 77.6057265, 12.9692425 ], [ 77.6058317, 12.9690288 ], [ 77.6058397, 12.9690112 ], [ 77.6059286, 12.9688243 ], [ 77.6061196, 12.9687902 ], [ 77.6061284, 12.9687912 ], [ 77.6061713, 12.9687944 ], [ 77.6062323, 12.96905 ], [ 77.6063108, 12.9693101 ], [ 77.6063154, 12.9693272 ], [ 77.6061974, 12.9693648 ] ] ] } },
{ "type": "Feature", "properties": { "name": "TS Convention Hall", "amenity": "community_centre", "building": "yes", "leisure": null }, "geometry": { "type": "Polygon", "coordinates": [ [ [ 77.5657123, 12.8728141 ], [ 77.5660938, 12.8727366 ], [ 77.5660733, 12.8726096 ], [ 77.565694, 12.8726885 ], [ 77.5657123, 12.8728141 ] ] ] } },
{ "type": "Feature", "properties": { "name": "Institution of Agricultural Technologists", "amenity": "community_centre", "building": null, "leisure": null }, "geometry": { "type": "Polygon", "coordinates": [ [ [ 77.5980882, 12.9874035 ], [ 77.5983179, 12.9873263 ], [ 77.5983393, 12.9873843 ], [ 77.5984211, 12.9875674 ], [ 77.5984712, 12.9876852 ], [ 77.5981516, 12.9879621 ], [ 77.5979178, 12.9877274 ], [ 77.5980918, 12.9875622 ], [ 77.5979378, 12.9872321 ], [ 77.5979015, 12.9871331 ], [ 77.5979042, 12.9871352 ], [ 77.5979254, 12.9871256 ], [ 77.5979604, 12.9871099 ], [ 77.5980882, 12.9874035 ] ] ] } },
{ "type": "Feature", "properties": { "name": "St. John's Community Center", "amenity": "community_centre", "building": null, "leisure": null }, "geometry": { "type": "Polygon", "coordinates": [ [ [ 77.6131256, 12.9911381 ], [ 77.6130481, 12.9911865 ], [ 77.6130051, 12.9911811 ], [ 77.6129163, 12.9912345 ], [ 77.6126126, 12.991355 ], [ 77.612797, 12.9917386 ], [ 77.6132941, 12.991485 ], [ 77.6131256, 12.9911381 ] ] ] } },
{ "type": "Feature", "properties": { "name": "Sri Rajarajeshwari Kalyana Mantapa", "amenity": "community_centre", "building": null, "leisure": null }, "geometry": { "type": "Polygon", "coordinates": [ [ [ 77.5550893, 12.9947677 ], [ 77.5546655, 12.9945665 ], [ 77.5546675, 12.9936746 ], [ 77.5553682, 12.9943038 ], [ 77.5550893, 12.9947677 ] ] ] } },
{ "type": "Feature", "properties": { "name": "Tirumala Tirupathi Devasthanam Kalyana Mantapa", "amenity": "community_centre", "building": null, "leisure": null }, "geometry": { "type": "Polygon", "coordinates": [ [ [ 77.5763431, 13.0070771 ], [ 77.5763173, 13.0065229 ], [ 77.5767808, 13.0065113 ], [ 77.5767924, 13.0070313 ], [ 77.5763431, 13.0070771 ] ] ] } },
{ "type": "Feature", "properties": { "name": "Clubhouse", "amenity": "community_centre", "building": "yes", "leisure": null }, "geometry": { "type": "Polygon", "coordinates": [ [ [ 77.5202828, 12.9823343 ], [ 77.5205637, 12.9822664 ], [ 77.5204883, 12.9819702 ], [ 77.5202074, 12.982038 ], [ 77.5202828, 12.9823343 ] ] ] } },
{ "type": "Feature", "properties": { "name": "Crystal Palace Convention Center", "amenity": "community_centre", "building": null, "leisure": null }, "geometry": { "type": "Polygon", "coordinates": [ [ [ 77.6328968, 13.0624808 ], [ 77.6329634, 13.0628835 ], [ 77.6333987, 13.0628152 ], [ 77.6333502, 13.0625219 ], [ 77.6330811, 13.0625641 ], [ 77.633063, 13.0624547 ], [ 77.6328968, 13.0624808 ] ] ] } },
{ "type": "Feature", "properties": { "name": "Ashirwad", "amenity": "community_centre", "building": null, "leisure": null }, "geometry": { "type": "Polygon", "coordinates": [ [ [ 77.6002439, 12.9717559 ], [ 77.6003973, 12.9717198 ], [ 77.600617, 12.9716767 ], [ 77.6006324, 12.9717514 ], [ 77.6007403, 12.9722735 ], [ 77.6006094, 12.972283 ], [ 77.6005562, 12.9722869 ], [ 77.6002857, 12.9723065 ], [ 77.6002439, 12.9717559 ] ] ] } },
{ "type": "Feature", "properties": { "name": "Samudaya Bhavan", "amenity": "community_centre", "building": null, "leisure": null }, "geometry": { "type": "Polygon", "coordinates": [ [ [ 77.6223441, 12.9184434 ], [ 77.6230715, 12.9185454 ], [ 77.6238111, 12.9183247 ], [ 77.624014, 12.9188778 ], [ 77.6239752, 12.9189039 ], [ 77.6234213, 12.9192595 ], [ 77.6227648, 12.9193302 ], [ 77.6224764, 12.9193639 ], [ 77.6214941, 12.9194948 ], [ 77.6223441, 12.9184434 ] ] ] } },
{ "type": "Feature", "properties": { "name": "Raitha Bhavan", "amenity": "community_centre", "building": null, "leisure": null }, "geometry": { "type": "Polygon", "coordinates": [ [ [ 77.5484656, 13.0237216 ], [ 77.5490274, 13.0234039 ], [ 77.5487827, 13.0229528 ], [ 77.5482088, 13.0232482 ], [ 77.5484656, 13.0237216 ] ] ] } },
{ "type": "Feature", "properties": { "name": "Khan's Convention Hall", "amenity": "community_centre", "building": null, "leisure": null }, "geometry": { "type": "Polygon", "coordinates": [ [ [ 77.6037835, 12.9908987 ], [ 77.6032644, 12.9909031 ], [ 77.6032926, 12.9905246 ], [ 77.6037674, 12.9905181 ], [ 77.6037835, 12.9908987 ] ] ] } },
{ "type": "Feature", "properties": { "name": "Milan Hall", "amenity": "community_centre", "building": null, "leisure": null }, "geometry": { "type": "Polygon", "coordinates": [ [ [ 77.6031612, 12.990458 ], [ 77.6034441, 12.9904553 ], [ 77.6034402, 12.9900567 ], [ 77.6031572, 12.9900594 ], [ 77.6031612, 12.990458 ] ] ] } },
{ "type": "Feature", "properties": { "name": "The Bangalore Friend-In Need Society", "amenity": "community_centre", "building": null, "leisure": null }, "geometry": { "type": "Polygon", "coordinates": [ [ [ 77.602174, 12.9908914 ], [ 77.602178, 12.9912421 ], [ 77.6027866, 12.9912355 ], [ 77.6027794, 12.9906103 ], [ 77.6027159, 12.990611 ], [ 77.602719, 12.9908855 ], [ 77.602174, 12.9908914 ] ] ] } },
{ "type": "Feature", "properties": { "name": "Vigneshwara Seva Samiti", "amenity": "community_centre", "building": null, "leisure": null }, "geometry": { "type": "Polygon", "coordinates": [ [ [ 77.5514278, 13.0058322 ], [ 77.5512343, 13.0058972 ], [ 77.5511094, 13.0059356 ], [ 77.551071, 13.0057246 ], [ 77.5515072, 13.0057456 ], [ 77.5515072, 13.0057985 ], [ 77.5514278, 13.0058322 ] ] ] } },
{ "type": "Feature", "properties": { "name": "Club House", "amenity": "community_centre", "building": "yes", "leisure": null }, "geometry": { "type": "Polygon", "coordinates": [ [ [ 77.7112886, 12.9817535 ], [ 77.7112018, 12.9817363 ], [ 77.7111138, 12.9817275 ], [ 77.7110253, 12.9817269 ], [ 77.7109372, 12.9817348 ], [ 77.7108569, 12.9817493 ], [ 77.7107783, 12.9817708 ], [ 77.710702, 12.9817991 ], [ 77.7106286, 12.9818339 ], [ 77.7106256, 12.9817857 ], [ 77.7106299, 12.9817377 ], [ 77.7106416, 12.9816908 ], [ 77.7106602, 12.9816461 ], [ 77.7106855, 12.9816047 ], [ 77.7107167, 12.9815673 ], [ 77.7107534, 12.9815348 ], [ 77.7107945, 12.9815081 ], [ 77.7108393, 12.9814875 ], [ 77.7108867, 12.9814737 ], [ 77.7109368, 12.9814668 ], [ 77.7109873, 12.9814674 ], [ 77.7110372, 12.9814754 ], [ 77.7110852, 12.9814907 ], [ 77.7111304, 12.981513 ], [ 77.7111715, 12.9815416 ], [ 77.7112077, 12.981576 ], [ 77.7112381, 12.9816153 ], [ 77.7112621, 12.9816587 ], [ 77.711279, 12.9817051 ], [ 77.7112886, 12.9817535 ] ] ] } },
{ "type": "Feature", "properties": { "name": "Missionaries of Charity", "amenity": "community_centre", "building": null, "leisure": null }, "geometry": { "type": "Polygon", "coordinates": [ [ [ 77.6053987, 13.1093832 ], [ 77.6054466, 13.1094875 ], [ 77.6057347, 13.1101142 ], [ 77.6046109, 13.110321 ], [ 77.604067, 13.109491 ], [ 77.60493, 13.1092715 ], [ 77.6049985, 13.1094824 ], [ 77.6053987, 13.1093832 ] ] ] } },
{ "type": "Feature", "properties": { "name": "Asha Bhavan", "amenity": "community_centre", "building": null, "leisure": null }, "geometry": { "type": "Polygon", "coordinates": [ [ [ 77.7079081, 12.9129433 ], [ 77.7081603, 12.9123053 ], [ 77.7077016, 12.912193 ], [ 77.7072162, 12.9119367 ], [ 77.7070606, 12.9117798 ], [ 77.7065751, 12.9119472 ], [ 77.7068943, 12.9128596 ], [ 77.7069827, 12.9128282 ], [ 77.7070606, 12.9131132 ], [ 77.7075152, 12.9130328 ], [ 77.7076984, 12.9135657 ], [ 77.7079081, 12.9129433 ] ] ] } },
{ "type": "Feature", "properties": { "name": "St. Patrick's Community Hall", "amenity": "community_centre", "building": null, "leisure": null }, "geometry": { "type": "Polygon", "coordinates": [ [ [ 77.605078, 12.9705841 ], [ 77.6052621, 12.9701915 ], [ 77.6058012, 12.9704379 ], [ 77.6058303, 12.9705282 ], [ 77.6056798, 12.9708778 ], [ 77.6054785, 12.9707717 ], [ 77.605078, 12.9705841 ] ] ] } },
{ "type": "Feature", "properties": { "name": "Adam's Golden Heritage", "amenity": "community_centre", "building": null, "leisure": null }, "geometry": { "type": "Polygon", "coordinates": [ [ [ 77.6076915, 12.997783 ], [ 77.6078068, 12.997932 ], [ 77.6074655, 12.9980169 ], [ 77.6074099, 12.9978426 ], [ 77.6076915, 12.997783 ] ] ] } },
{ "type": "Feature", "properties": { "name": null, "amenity": "community_centre", "building": "yes", "leisure": null }, "geometry": { "type": "Polygon", "coordinates": [ [ [ 77.6702223, 12.9161205 ], [ 77.670198, 12.9160819 ], [ 77.6701721, 12.9160974 ], [ 77.6700759, 12.9159445 ], [ 77.6701015, 12.9159292 ], [ 77.6700807, 12.9158961 ], [ 77.6701591, 12.9158493 ], [ 77.6701787, 12.9158806 ], [ 77.6702561, 12.9158344 ], [ 77.6702713, 12.9158585 ], [ 77.6702953, 12.9158441 ], [ 77.670359, 12.9159454 ], [ 77.6703313, 12.9159619 ], [ 77.6703497, 12.9159912 ], [ 77.6702767, 12.9160348 ], [ 77.670301, 12.9160735 ], [ 77.6702223, 12.9161205 ] ] ] } },
{ "type": "Feature", "properties": { "name": "SpoorthiDhaama", "amenity": "community_centre", "building": null, "leisure": null }, "geometry": { "type": "Polygon", "coordinates": [ [ [ 77.4868737, 12.9788761 ], [ 77.4865347, 12.9789894 ], [ 77.4866608, 12.9795775 ], [ 77.485781, 12.9799303 ], [ 77.4852446, 12.9773532 ], [ 77.484386, 12.9739565 ], [ 77.4845231, 12.9738587 ], [ 77.4851808, 12.974131 ], [ 77.4858873, 12.9741791 ], [ 77.4861801, 12.9743101 ], [ 77.4875432, 12.9756674 ], [ 77.4874104, 12.9764486 ], [ 77.4874842, 12.9774238 ], [ 77.4870818, 12.9782236 ], [ 77.486884, 12.9786157 ], [ 77.4868737, 12.9788761 ] ] ] } },
{ "type": "Feature", "properties": { "name": "Samarthana Trust for the Disabled", "amenity": "community_centre", "building": null, "leisure": null }, "geometry": { "type": "Polygon", "coordinates": [ [ [ 77.6412351, 12.9149955 ], [ 77.6415905, 12.9149864 ], [ 77.6415624, 12.9141694 ], [ 77.641215, 12.9142583 ], [ 77.6412351, 12.9149955 ] ] ] } },
{ "type": "Feature", "properties": { "name": "Vishranthi Nilayam", "amenity": "community_centre", "building": null, "leisure": null }, "geometry": { "type": "Polygon", "coordinates": [ [ [ 77.5985774, 12.9810839 ], [ 77.5988748, 12.9820548 ], [ 77.59979, 12.9817436 ], [ 77.5996054, 12.981207 ], [ 77.5994571, 12.9807761 ], [ 77.5985774, 12.9810839 ] ] ] } },
{ "type": "Feature", "properties": { "name": "The Bangalore Parsee Zoroastrian Anjuman", "amenity": "community_centre", "building": null, "leisure": null }, "geometry": { "type": "Polygon", "coordinates": [ [ [ 77.5973827, 12.9845883 ], [ 77.5984251, 12.9841938 ], [ 77.5984133, 12.9841671 ], [ 77.5984006, 12.9841376 ], [ 77.5979051, 12.9840733 ], [ 77.5977156, 12.9841559 ], [ 77.597554, 12.984253 ], [ 77.5974565, 12.9843114 ], [ 77.597379, 12.9844467 ], [ 77.5973643, 12.9845375 ], [ 77.5973827, 12.9845883 ] ] ] } },
{ "type": "Feature", "properties": { "name": "Shams Convention Centre", "amenity": "community_centre", "building": null, "leisure": null }, "geometry": { "type": "Polygon", "coordinates": [ [ [ 77.6072328, 12.992209 ], [ 77.6076888, 12.9922038 ], [ 77.6077558, 12.9920065 ], [ 77.6077236, 12.9916929 ], [ 77.6072127, 12.9917086 ], [ 77.6072328, 12.992209 ] ] ] } },
{ "type": "Feature", "properties": { "name": "Mukhtar Manzil Convention Hall", "amenity": "community_centre", "building": null, "leisure": null }, "geometry": { "type": "Polygon", "coordinates": [ [ [ 77.6026254, 12.9951768 ], [ 77.6028762, 12.9951074 ], [ 77.6028274, 12.9949268 ], [ 77.6027428, 12.9946148 ], [ 77.6025906, 12.9946644 ], [ 77.602532, 12.9947523 ], [ 77.6026254, 12.9951768 ] ] ] } },
{ "type": "Feature", "properties": { "name": "Taj Palace", "amenity": "community_centre", "building": null, "leisure": null }, "geometry": { "type": "Polygon", "coordinates": [ [ [ 77.6026254, 12.9951768 ], [ 77.6021554, 12.995308 ], [ 77.602532, 12.9947523 ], [ 77.6026254, 12.9951768 ] ] ] } },
{ "type": "Feature", "properties": { "name": "Indian Social Institute", "amenity": "community_centre", "building": null, "leisure": null }, "geometry": { "type": "Polygon", "coordinates": [ [ [ 77.6059091, 12.9977615 ], [ 77.6050655, 12.997785 ], [ 77.6049596, 12.9973459 ], [ 77.6051229, 12.9973037 ], [ 77.605447, 12.997227 ], [ 77.6053284, 12.9968396 ], [ 77.605789, 12.9967683 ], [ 77.6061675, 12.9967953 ], [ 77.606201, 12.9971265 ], [ 77.6058558, 12.9971845 ], [ 77.6058205, 12.9971919 ], [ 77.6059091, 12.9977615 ] ] ] } },
{ "type": "Feature", "properties": { "name": "Family YMCA", "amenity": "community_centre", "building": null, "leisure": null }, "geometry": { "type": "Polygon", "coordinates": [ [ [ 77.6052862, 12.9944972 ], [ 77.6054544, 12.9947307 ], [ 77.6056107, 12.994967 ], [ 77.6057622, 12.9948648 ], [ 77.6057863, 12.9948972 ], [ 77.6056415, 12.9949905 ], [ 77.6056858, 12.9950918 ], [ 77.6056667, 12.9951032 ], [ 77.6057908, 12.9953092 ], [ 77.605484, 12.9954826 ], [ 77.6051674, 12.9948586 ], [ 77.6053144, 12.994786 ], [ 77.6051896, 12.9945351 ], [ 77.6052862, 12.9944972 ] ] ] } },
{ "type": "Feature", "properties": { "name": "Holy Cross Mercy Old Age Home", "amenity": "community_centre", "building": null, "leisure": null }, "geometry": { "type": "Polygon", "coordinates": [ [ [ 77.652963, 13.0671575 ], [ 77.6535585, 13.0671594 ], [ 77.6535612, 13.0688368 ], [ 77.6518151, 13.068829 ], [ 77.6519354, 13.0671478 ], [ 77.652963, 13.0671575 ] ] ] } },
{ "type": "Feature", "properties": { "name": "Le Roma Gardenia", "amenity": "community_centre", "building": null, "leisure": null }, "geometry": { "type": "Polygon", "coordinates": [ [ [ 77.5633593, 13.1265857 ], [ 77.5631225, 13.1256834 ], [ 77.5642665, 13.1254171 ], [ 77.5652557, 13.1251699 ], [ 77.5653385, 13.1253668 ], [ 77.5652575, 13.1253851 ], [ 77.5654963, 13.1259864 ], [ 77.564359, 13.1263156 ], [ 77.564418, 13.1266734 ], [ 77.5643241, 13.1267727 ], [ 77.5641498, 13.1268458 ], [ 77.5639164, 13.1269007 ], [ 77.5637689, 13.1268511 ], [ 77.5635892, 13.1267675 ], [ 77.5634766, 13.126744 ], [ 77.5634444, 13.1265925 ], [ 77.5633593, 13.1265857 ] ] ] } },
{ "type": "Feature", "properties": { "name": "Kendriya Vihar Community Hall", "amenity": "community_centre", "building": "commercial", "leisure": null }, "geometry": { "type": "Polygon", "coordinates": [ [ [ 77.6000219, 13.1070299 ], [ 77.6000681, 13.1068544 ], [ 77.6002652, 13.1069036 ], [ 77.600219, 13.107079 ], [ 77.6000219, 13.1070299 ] ] ] } },
{ "type": "Feature", "properties": { "name": "Aditya Kalyana Mantapa", "amenity": "community_centre", "building": null, "leisure": null }, "geometry": { "type": "Polygon", "coordinates": [ [ [ 77.5381686, 12.9203235 ], [ 77.53865, 12.9201902 ], [ 77.5382236, 12.918687 ], [ 77.5380519, 12.9187184 ], [ 77.5381981, 12.9195889 ], [ 77.5381055, 12.9197667 ], [ 77.5381686, 12.9203235 ] ] ] } },
{ "type": "Feature", "properties": { "name": "Chowdeswari Devi Kalyana Mantapa", "amenity": "community_centre", "building": null, "leisure": null }, "geometry": { "type": "Polygon", "coordinates": [ [ [ 77.5978772, 13.1046026 ], [ 77.5975822, 13.1045634 ], [ 77.5973252, 13.1042763 ], [ 77.5972695, 13.1042474 ], [ 77.5970123, 13.1041793 ], [ 77.5970994, 13.1039887 ], [ 77.597951, 13.1042499 ], [ 77.5978837, 13.1045185 ], [ 77.5978772, 13.1046026 ] ] ] } },
{ "type": "Feature", "properties": { "name": null, "amenity": "community_centre", "building": null, "leisure": null }, "geometry": { "type": "Polygon", "coordinates": [ [ [ 77.538176, 12.9935759 ], [ 77.5385816, 12.9935779 ], [ 77.5385186, 12.9933962 ], [ 77.5381753, 12.9933374 ], [ 77.538176, 12.9935759 ] ] ] } },
{ "type": "Feature", "properties": { "name": null, "amenity": "community_centre", "building": null, "leisure": null }, "geometry": { "type": "Polygon", "coordinates": [ [ [ 77.5238375, 12.9515808 ], [ 77.5236189, 12.9502045 ], [ 77.5240253, 12.9501339 ], [ 77.524087, 12.9515455 ], [ 77.5238375, 12.9515808 ] ] ] } },
{ "type": "Feature", "properties": { "name": "The Association of People with Disability", "amenity": "community_centre", "building": null, "leisure": null }, "geometry": { "type": "Polygon", "coordinates": [ [ [ 77.6228888, 13.007503 ], [ 77.6229133, 13.0075697 ], [ 77.6229364, 13.0075638 ], [ 77.6229814, 13.0076742 ], [ 77.6228781, 13.007716 ], [ 77.6229814, 13.0079525 ], [ 77.623312, 13.0078278 ], [ 77.6235165, 13.0077461 ], [ 77.6239711, 13.0075514 ], [ 77.6238812, 13.0073332 ], [ 77.6234347, 13.0075017 ], [ 77.6233609, 13.007326 ], [ 77.6228888, 13.007503 ] ] ] } },
{ "type": "Feature", "properties": { "name": "Terige Bhavana", "amenity": "community_centre", "building": null, "leisure": null }, "geometry": { "type": "Polygon", "coordinates": [ [ [ 77.5106934, 12.9643471 ], [ 77.5112365, 12.9636734 ], [ 77.5113076, 12.9636217 ], [ 77.5115088, 12.963593 ], [ 77.5115892, 12.96361 ], [ 77.5110179, 12.9644621 ], [ 77.5106934, 12.9643471 ] ] ] } },
{ "type": "Feature", "properties": { "name": "Salarpuria Sattva Divinity Clubhouse", "amenity": "community_centre", "building": "yes", "leisure": null }, "geometry": { "type": "Polygon", "coordinates": [ [ [ 77.526416, 12.9389726 ], [ 77.5264059, 12.9392913 ], [ 77.5263901, 12.9393246 ], [ 77.5263876, 12.939358 ], [ 77.5263984, 12.9393807 ], [ 77.5264151, 12.9393937 ], [ 77.5264401, 12.9394013 ], [ 77.5264618, 12.9393962 ], [ 77.5264794, 12.9393848 ], [ 77.5264885, 12.9393742 ], [ 77.5265098, 12.9393625 ], [ 77.5267897, 12.9393693 ], [ 77.526416, 12.9389726 ] ] ] } },
{ "type": "Feature", "properties": { "name": null, "amenity": "community_centre", "building": "yes", "leisure": null }, "geometry": { "type": "Polygon", "coordinates": [ [ [ 77.7394072, 12.9704803 ], [ 77.7395224, 12.9704639 ], [ 77.7394921, 12.9702612 ], [ 77.7393768, 12.9702776 ], [ 77.7394072, 12.9704803 ] ] ] } },
{ "type": "Feature", "properties": { "name": "Sardar Patel Bhavan", "amenity": "community_centre", "building": null, "leisure": null }, "geometry": { "type": "Polygon", "coordinates": [ [ [ 77.5966173, 12.9923672 ], [ 77.5963832, 12.9921659 ], [ 77.5966166, 12.9918824 ], [ 77.5968391, 12.9920571 ], [ 77.5966173, 12.9923672 ] ] ] } },
{ "type": "Feature", "properties": { "name": "Sri Nandagokula Kalyana Mantapa", "amenity": "community_centre", "building": null, "leisure": null }, "geometry": { "type": "Polygon", "coordinates": [ [ [ 77.6337145, 13.0657191 ], [ 77.6337002, 13.065388 ], [ 77.6336887, 13.0651234 ], [ 77.6338725, 13.0651249 ], [ 77.6339449, 13.0651254 ], [ 77.6339276, 13.0648896 ], [ 77.633923, 13.0647797 ], [ 77.6344612, 13.0646721 ], [ 77.6345678, 13.0653099 ], [ 77.634596, 13.0654835 ], [ 77.6346034, 13.0655291 ], [ 77.6337145, 13.0657191 ] ] ] } },
{ "type": "Feature", "properties": { "name": "BBMP", "amenity": "townhall", "building": "government", "leisure": null }, "geometry": { "type": "Polygon", "coordinates": [ [ [ 77.5815509, 13.0980318 ], [ 77.581338, 13.0978421 ], [ 77.5814305, 13.0977436 ], [ 77.5816434, 13.0979333 ], [ 77.5815509, 13.0980318 ] ] ] } },
{ "type": "Feature", "properties": { "name": "Malleshwaram Indoor Stadium", "amenity": null, "building": null, "leisure": "stadium" }, "geometry": { "type": "Polygon", "coordinates": [ [ [ 77.5747571, 13.0059589 ], [ 77.5747881, 13.0062282 ], [ 77.5746452, 13.0062295 ], [ 77.5746217, 13.0059703 ], [ 77.5747571, 13.0059589 ] ] ] } },
{ "type": "Feature", "properties": { "name": "Basaveshwara Sugnana Mantapa", "amenity": "community_centre", "building": null, "leisure": null }, "geometry": { "type": "Polygon", "coordinates": [ [ [ 77.5456667, 12.9752596 ], [ 77.5459, 12.9752139 ], [ 77.5458363, 12.9744873 ], [ 77.5454468, 12.9744768 ], [ 77.5456667, 12.9752596 ] ] ] } },
{ "type": "Feature", "properties": { "name": "Young Men Indians' Association", "amenity": "community_centre", "building": null, "leisure": null }, "geometry": { "type": "Polygon", "coordinates": [ [ [ 77.6190415, 12.9900718 ], [ 77.6187596, 12.9900333 ], [ 77.6189929, 12.9904671 ], [ 77.6190824, 12.9907677 ], [ 77.6191951, 12.990753 ], [ 77.6193835, 12.9907255 ], [ 77.6194388, 12.9901038 ], [ 77.6194381, 12.9900679 ], [ 77.6190415, 12.9900718 ] ] ] } },
{ "type": "Feature", "properties": { "name": "Women's Indian Association", "amenity": "community_centre", "building": null, "leisure": null }, "geometry": { "type": "Polygon", "coordinates": [ [ [ 77.619988, 12.9993243 ], [ 77.6203206, 12.9986514 ], [ 77.6201449, 12.9985912 ], [ 77.6195723, 12.9986135 ], [ 77.619988, 12.9993243 ] ] ] } },
{ "type": "Feature", "properties": { "name": "Bengaluru Vihara Kendra", "amenity": "community_centre", "building": null, "leisure": null }, "geometry": { "type": "Polygon", "coordinates": [ [ [ 77.5699595, 12.92499 ], [ 77.5701365, 12.9257142 ], [ 77.5702813, 12.9257024 ], [ 77.5704047, 12.9252475 ], [ 77.5703967, 12.924909 ], [ 77.5699595, 12.92499 ] ] ] } },
{ "type": "Feature", "properties": { "name": null, "amenity": "community_centre", "building": null, "leisure": null }, "geometry": { "type": "Polygon", "coordinates": [ [ [ 77.7000761, 13.0131048 ], [ 77.7002893, 13.013502 ], [ 77.7009773, 13.0134941 ], [ 77.7009317, 13.0131649 ], [ 77.7008848, 13.0129702 ], [ 77.7000761, 13.0131048 ] ] ] } },
{ "type": "Feature", "properties": { "name": "Bharat Sevashram Sangha", "amenity": "community_centre", "building": null, "leisure": null }, "geometry": { "type": "Polygon", "coordinates": [ [ [ 77.604454, 13.0741302 ], [ 77.6055229, 13.0738532 ], [ 77.6054786, 13.073622 ], [ 77.6047309, 13.0737357 ], [ 77.6047846, 13.0739172 ], [ 77.6044098, 13.0739956 ], [ 77.604454, 13.0741302 ] ] ] } },
{ "type": "Feature", "properties": { "name": "GNR Kalyana Mantapa", "amenity": "community_centre", "building": null, "leisure": null }, "geometry": { "type": "Polygon", "coordinates": [ [ [ 77.5894243, 12.9195262 ], [ 77.5888989, 12.9195003 ], [ 77.5888932, 12.9196907 ], [ 77.5890734, 12.9199513 ], [ 77.5891986, 12.9199901 ], [ 77.5894015, 12.9200012 ], [ 77.5894243, 12.9195262 ] ] ] } },
{ "type": "Feature", "properties": { "name": "Mandala Cultural Center", "amenity": "community_centre", "building": null, "leisure": null }, "geometry": { "type": "Polygon", "coordinates": [ [ [ 77.5295682, 12.8634085 ], [ 77.5296804, 12.8634109 ], [ 77.5297183, 12.863558 ], [ 77.5301568, 12.863575 ], [ 77.5305028, 12.8627722 ], [ 77.5306149, 12.8628527 ], [ 77.530399, 12.8632948 ], [ 77.5306911, 12.8634575 ], [ 77.5303762, 12.8638717 ], [ 77.5295607, 12.8638495 ], [ 77.5295682, 12.8634085 ] ] ] } },
{ "type": "Feature", "properties": { "name": null, "amenity": "community_centre", "building": null, "leisure": null }, "geometry": { "type": "Polygon", "coordinates": [ [ [ 77.6295528, 13.1251127 ], [ 77.6296779, 13.1256007 ], [ 77.6304214, 13.1254751 ], [ 77.6304314, 13.1249757 ], [ 77.6295528, 13.1251127 ] ] ] } },
{ "type": "Feature", "properties": { "name": "BBMP Yoga Center", "amenity": "community_centre", "building": "outbuilding", "leisure": null }, "geometry": { "type": "Polygon", "coordinates": [ [ [ 77.537835, 12.9994009 ], [ 77.5380899, 12.9992722 ], [ 77.5380451, 12.9991794 ], [ 77.5377948, 12.9993237 ], [ 77.537835, 12.9994009 ] ] ] } },
{ "type": "Feature", "properties": { "name": "SJP Kalyana Mantapa", "amenity": "community_centre", "building": null, "leisure": null }, "geometry": { "type": "Polygon", "coordinates": [ [ [ 77.6817703, 12.9656711 ], [ 77.6823072, 12.9654183 ], [ 77.6823819, 12.965383 ], [ 77.6826703, 12.9653077 ], [ 77.6823796, 12.9648244 ], [ 77.6815329, 12.9651998 ], [ 77.6817703, 12.9656711 ] ] ] } },
{ "type": "Feature", "properties": { "name": "White Pearl Convention Centre", "amenity": "community_centre", "building": null, "leisure": null }, "geometry": { "type": "Polygon", "coordinates": [ [ [ 77.6337612, 13.1039129 ], [ 77.6343177, 13.1037993 ], [ 77.6343942, 13.10338 ], [ 77.633682, 13.1034976 ], [ 77.6337612, 13.1039129 ] ] ] } },
{ "type": "Feature", "properties": { "name": "Manthra Convention Centre", "amenity": "community_centre", "building": null, "leisure": null }, "geometry": { "type": "Polygon", "coordinates": [ [ [ 77.719954, 12.91007 ], [ 77.7204341, 12.9111576 ], [ 77.721324, 12.9108763 ], [ 77.7209705, 12.9097981 ], [ 77.719954, 12.91007 ] ] ] } },
{ "type": "Feature", "properties": { "name": "Sri Lakshminarayana Swamy Kalyana Mantapa", "amenity": "community_centre", "building": null, "leisure": null }, "geometry": { "type": "Polygon", "coordinates": [ [ [ 77.5366696, 12.9889722 ], [ 77.5370446, 12.9889032 ], [ 77.5369721, 12.9885289 ], [ 77.5364973, 12.9886162 ], [ 77.5366696, 12.9889722 ] ] ] } },
{ "type": "Feature", "properties": { "name": "Siddagangasri Dr. Shivakumara Swamiji Jnana Prakasha Mantapa", "amenity": "community_centre", "building": null, "leisure": null }, "geometry": { "type": "Polygon", "coordinates": [ [ [ 77.4922583, 12.9470861 ], [ 77.49248, 12.947028 ], [ 77.4923283, 12.9464573 ], [ 77.492103, 12.9465344 ], [ 77.4922583, 12.9470861 ] ] ] } },
{ "type": "Feature", "properties": { "name": "VRR Nest Club House", "amenity": "community_centre", "building": "yes", "leisure": null }, "geometry": { "type": "Polygon", "coordinates": [ [ [ 77.6625443, 12.8647012 ], [ 77.6625295, 12.8646656 ], [ 77.6624979, 12.8645828 ], [ 77.6626322, 12.8645097 ], [ 77.6626628, 12.8644924 ], [ 77.6626884, 12.8645626 ], [ 77.6626726, 12.8645857 ], [ 77.6626874, 12.8646232 ], [ 77.6625443, 12.8647012 ] ] ] } },
{ "type": "Feature", "properties": { "name": "Suryodhaya", "amenity": "community_centre", "building": "commercial", "leisure": null }, "geometry": { "type": "Polygon", "coordinates": [ [ [ 77.6021414, 12.9315079 ], [ 77.6022933, 12.9314852 ], [ 77.6022463, 12.9311806 ], [ 77.602096, 12.9312031 ], [ 77.6021414, 12.9315079 ] ] ] } }
]
}
